placeId,address,category,phone,latitude,longitude,status,type,googleUrl,storeName,ratingText,stars,numberOfReviews,tileNumber
Jrbbx-xHJ5zsRiSApgCBXgv4,"116 Patil House, Gavkari Mandal",Shopping mall,NA,19.0535852,72.8715688,Avaliable,In-store shopping,https://www.google.com/maps/place/Patil+Shopping+Mini+Mall/data=!4m7!3m6!1s0x3be7c911fbf1b6ad:0xfe82572080292089!8m2!3d19.0535852!4d72.8715688!16s%2Fg%2F11gm84661n!19sChIJrbbx-xHJ5zsRiSApgCBXgv4?authuser=0&hl=en&rclk=1,Patil Shopping Mini Mall,4.9 stars 7 Reviews,4.9,7,"z=16,x=46033,y=29233"
Jz91Y88bI5zsRoj7-JDaRufg,"Shop No 4, Maitri Shopping Centre, opposite Hanuman Mandir",Cake shop,NA,19.0531744,72.8708129,Avaliable,Takeaway,https://www.google.com/maps/place/Monginis+Cake+Shop/data=!4m7!3m6!1s0x3be7c8c6f358ddcf:0xf8b9913624fe3ea2!8m2!3d19.0531744!4d72.8708129!16s%2Fg%2F113gs481s!19sChIJz91Y88bI5zsRoj7-JDaRufg?authuser=0&hl=en&rclk=1,Monginis Cake Shop,3.9 stars 143 Reviews,3.9,143,"z=16,x=46033,y=29233"
Jq6qqur_I5zsRVHxtZV_7SA4,"D-16, 17",Supermarket, 096195 34863,19.062863,72.8825803,Avaliable,"""Good shop we love to shop there""",https://www.google.com/maps/place/Chheda+Super+Mart/data=!4m7!3m6!1s0x3be7c8bfbaaaaaab:0xe48fb5f656d7c54!8m2!3d19.062863!4d72.8825803!16s%2Fg%2F1td3k1kq!19sChIJq6qqur_I5zsRVHxtZV_7SA4?authuser=0&hl=en&rclk=1,Chheda Super Mart,4.0 stars 378 Reviews,4,378,"z=16,x=46035,y=29231"
Jec6bgyDJ5zsRmyLRAiu3giI,"Kurla, A-402/403, SG Barve Marg",General store,084520 39448,19.0648694,72.8789194,Avaliable,NA,https://www.google.com/maps/place/Shashibhushan+Shop/data=!4m7!3m6!1s0x3be7c920839bce79:0x2282b72b02d1229b!8m2!3d19.0648694!4d72.8789194!16s%2Fg%2F11vs2zzltq!19sChIJec6bgyDJ5zsRmyLRAiu3giI?authuser=0&hl=en&rclk=1,Shashibhushan Shop,NA,,,"z=16,x=46035,y=29231"
JgVjBA6TJ5zsRbptlqfBQCTg,"E, 02, near 9 No Bus Depo",General store,081044 45251,19.0638248,72.8796001,Avaliable,NA,https://www.google.com/maps/place/Afroz+Ansari+Shop/data=!4m7!3m6!1s0x3be7c9a403c15881:0x380950f0a9659b6e!8m2!3d19.0638248!4d72.8796001!16s%2Fg%2F11y2mjphz4!19sChIJgVjBA6TJ5zsRbptlqfBQCTg?authuser=0&hl=en&rclk=1,Afroz Ansari Shop,NA,,,"z=16,x=46035,y=29231"
JM_Jehb3I5zsR4BRhF2JKeDI,"Shop No.B-18, S.G Barve Marg, Kedarnath Mandir Marg",General store, 099209 58257,19.0619584,72.8833116,Avaliable,NA,https://www.google.com/maps/place/A1+Kirana+%26+General+Store/data=!4m7!3m6!1s0x3be7c8bd855ef233:0x32784a62176114e0!8m2!3d19.0619584!4d72.8833116!16s%2Fg%2F1ptyqp1w6!19sChIJM_Jehb3I5zsR4BRhF2JKeDI?authuser=0&hl=en&rclk=1,A1 Kirana & General Store,4.0 stars 2 Reviews,4,2,"z=16,x=46036,y=29232"
J7cwjn2XJ5zsR5IL68fpbWPI,undefined,Fruit and vegetable store099306 65315,099306 65315,19.0644661,72.8820968,Avaliable,NA,https://www.google.com/maps/place/Vegetable+Shop/data=!4m7!3m6!1s0x3be7c9659f23cced:0xf2585bfaf1fa82e4!8m2!3d19.0644661!4d72.8820968!16s%2Fg%2F11vk2tlkkc!19sChIJ7cwjn2XJ5zsR5IL68fpbWPI?authuser=0&hl=en&rclk=1,Vegetable Shop,NA,,,"z=16,x=46035,y=29231"
JuTIqoJzJ5zsRLNhNNXz1Q58,Shop No1,Supermarket,087791 98919,19.0623003,72.8834279,Avaliable,NA,https://www.google.com/maps/place/Md+Shadab+Shop/data=!4m7!3m6!1s0x3be7c99ca02a32b9:0x9f43f57c354dd82c!8m2!3d19.0623003!4d72.8834279!16s%2Fg%2F11vlfvwlgj!19sChIJuTIqoJzJ5zsRLNhNNXz1Q58?authuser=0&hl=en&rclk=1,Md Shadab Shop,5.0 stars 1 Reviews,5,1,"z=16,x=46036,y=29231"
J1anD5sHJ5zsRZu74xgz9MDE,"Shop No. 14, Baba Home Appartment",Store,070213 22246,19.0629231,72.882771,Avaliable,NA,https://www.google.com/maps/place/Little+Store/data=!4m7!3m6!1s0x3be7c9c1e6c3a9d5:0x3130fd0cc6f8ee66!8m2!3d19.0629231!4d72.882771!16s%2Fg%2F11k4b9w99y!19sChIJ1anD5sHJ5zsRZu74xgz9MDE?authuser=0&hl=en&rclk=1,Little Store,NA,,,"z=16,x=46035,y=29231"
JvakJ0-_J5zsR43NVlIP85xQ,"Shop No 1, Nehru Nagar, Bus Depo, 9 No, Kurla W Sta Rd, opp. Kurla",General store,093243 35858,19.0624269,72.8790706,Avaliable,NA,https://www.google.com/maps/place/Inayat+General+Store/data=!4m7!3m6!1s0x3be7c9efd309a9bd:0x14e7fc83945573e3!8m2!3d19.0624269!4d72.8790706!16s%2Fg%2F11y2mk9wn0!19sChIJvakJ0-_J5zsR43NVlIP85xQ?authuser=0&hl=en&rclk=1,Inayat General Store,NA,,,"z=16,x=46035,y=29231"
J-5mf3r3I5zsRsF4mA8gXrIo,"3V6J+87X, Kedarnath Mandir Marg",Pharmacy, 098198 57707,19.0608583,72.8807245,Avaliable,Delivery,https://www.google.com/maps/place/Pooja+medical+and+general+stores/data=!4m7!3m6!1s0x3be7c8bdde9f99fb:0x8aac17c803265eb0!8m2!3d19.0608583!4d72.8807245!16s%2Fg%2F1ptw68rc1!19sChIJ-5mf3r3I5zsRsF4mA8gXrIo?authuser=0&hl=en&rclk=1,Pooja medical and general stores,4.8 stars 9 Reviews,4.8,9,"z=16,x=46035,y=29232"
Jy5Snd5bI5zsR3xG4TiSypKQ,"E, Shop No.-13/14, Metro Orchid Polis Sg Barve Marg, No.-S, B Barve Marg",General store, 097023 46469,19.0645517,72.8810478,Avaliable,NA,https://www.google.com/maps/place/Super+Kirana+%26+General+Store/data=!4m7!3m6!1s0x3be7c89677a794cb:0xa4a4b2244eb811df!8m2!3d19.0645517!4d72.8810478!16s%2Fg%2F11rqslsdpn!19sChIJy5Snd5bI5zsR3xG4TiSypKQ?authuser=0&hl=en&rclk=1,Super Kirana & General Store,NA,,,"z=16,x=46035,y=29231"
JDUdyIQ7J5zsRVDE65VHMs1g,"Shop No 4, Nahin Nagar S K P School",Store,072788 87799,19.0636021,72.8831959,Avaliable,NA,https://www.google.com/maps/place/Vishal+Suresh+avasare+Shop/data=!4m7!3m6!1s0x3be7c90e2172470d:0x58b3cc51e53a3154!8m2!3d19.0636021!4d72.8831959!16s%2Fg%2F11tx58f29q!19sChIJDUdyIQ7J5zsRVDE65VHMs1g?authuser=0&hl=en&rclk=1,Vishal Suresh avasare Shop,NA,,,"z=16,x=46035,y=29231"
Jb2Cv5orJ5zsR9tg2r0HjM4Q,"31, Haji Karamat Ali Rd",General store,082917 52068,19.0597139,72.8772091,Avaliable,In-store shopping,https://www.google.com/maps/place/Afroz+Begum%27s+Shop/data=!4m7!3m6!1s0x3be7c98ae6af606f:0x8433e341af36d8f6!8m2!3d19.0597139!4d72.8772091!16s%2Fg%2F11khf33jvq!19sChIJb2Cv5orJ5zsR9tg2r0HjM4Q?authuser=0&hl=en&rclk=1,Afroz Begum's Shop,NA,,,"z=16,x=46034,y=29232"
Jk9kXib3I5zsR5DTtmqo445U,"41, SG Barve Marg",Stationery store, 098190 77878,19.0623704,72.8830422,Avaliable,In-store shopping,https://www.google.com/maps/place/Prabhat+General+Stores/data=!4m7!3m6!1s0x3be7c8bd8917d993:0x95e338aa9aed34e4!8m2!3d19.0623704!4d72.8830422!16s%2Fg%2F1tfpsr74!19sChIJk9kXib3I5zsR5DTtmqo445U?authuser=0&hl=en&rclk=1,Prabhat General Stores,4.0 stars 31 Reviews,4,31,"z=16,x=46035,y=29231"
JYfKzUAPJ5zsRAbhBYJNpV0E,SG Barve Marg,Wine store,NA,19.0606025,72.8835283,Avaliable,Delivery,https://www.google.com/maps/place/Vishal+wine+shop/data=!4m7!3m6!1s0x3be7c90350b3f261:0x415769936041b801!8m2!3d19.0606025!4d72.8835283!16s%2Fg%2F11nrs46v90!19sChIJYfKzUAPJ5zsRAbhBYJNpV0E?authuser=0&hl=en&rclk=1,Vishal wine shop,3.9 stars 34 Reviews,3.9,34,"z=16,x=46036,y=29232"
JnWJEgdHJ5zsRfHcVEuXv9fk,Shop No 02,Tea store,086920 27592,19.0625432,72.8790696,Avaliable,Delivery,https://www.google.com/maps/place/Sharad+Shop/data=!4m7!3m6!1s0x3be7c9d18144629d:0xf9f5efe51215777c!8m2!3d19.0625432!4d72.8790696!16s%2Fg%2F11t4jngxkx!19sChIJnWJEgdHJ5zsRfHcVEuXv9fk?authuser=0&hl=en&rclk=1,Sharad Shop,NA,,,"z=16,x=46035,y=29231"
Jf2txi_bJ5zsRZLBfEDBZifY,"Shop No 2 Patri No 9, Hayat Hotel, opp. Bus Depot",General store,080907 50756,19.0638946,72.8796371,Avaliable,NA,https://www.google.com/maps/place/ABBUL+GENERAL+STORE/data=!4m7!3m6!1s0x3be7c9f68b716b7f:0xf6895930105fb064!8m2!3d19.0638946!4d72.8796371!16s%2Fg%2F11l77y2t62!19sChIJf2txi_bJ5zsRZLBfEDBZifY?authuser=0&hl=en&rclk=1,ABBUL GENERAL STORE,NA,,,"z=16,x=46035,y=29231"
JUUCWdcPJ5zsRrqL8WWx1VKU,"Shop No 1, Opt Mass Group",General store,093239 95544,19.0637849,72.8815554,Avaliable,NA,https://www.google.com/maps/place/Mohammed+Salman+Khan+Shop/data=!4m7!3m6!1s0x3be7c9c375964051:0xa554756c59fca2ae!8m2!3d19.0637849!4d72.8815554!16s%2Fg%2F11strsscb2!19sChIJUUCWdcPJ5zsRrqL8WWx1VKU?authuser=0&hl=en&rclk=1,Mohammed Salman Khan Shop,NA,,,"z=16,x=46035,y=29231"
JXWqfk4TJ5zsRezf279Hb8qw,Shop No. 54,General store,084869 52774,19.0598949,72.8773901,Avaliable,NA,https://www.google.com/maps/place/Rishi+General+Store/data=!4m7!3m6!1s0x3be7c984939f6a5d:0xacf2dbd1eff6377b!8m2!3d19.0598949!4d72.8773901!16s%2Fg%2F11rdn4v6zd!19sChIJXWqfk4TJ5zsRezf279Hb8qw?authuser=0&hl=en&rclk=1,Rishi General Store,NA,,,"z=16,x=46034,y=29232"
JO9ezEY_J5zsR_YCdcm1sBLo,"shop no 3, Orchid Metropolis, Cluster_mumbai Suburban_368, near kurla station",Medical group, 096197 50170,19.0647529,72.8806705,Avaliable,In-store shopping,https://www.google.com/maps/place/Curewell+Pharmacy+%26+Supermarket/data=!4m7!3m6!1s0x3be7c98f11b3d73b:0xba046c6d729d80fd!8m2!3d19.0647529!4d72.8806705!16s%2Fg%2F11pf1v8ml7!19sChIJO9ezEY_J5zsR_YCdcm1sBLo?authuser=0&hl=en&rclk=1,Curewell Pharmacy & Supermarket,5.0 stars 16 Reviews,5,16,"z=16,x=46035,y=29231"
JrwQO33_J5zsRasmGmRWtNDc,"C Wing, Jaihind Budha Vikas Shetty Bldg, Shop No 2",Grocery store,086044 09239,19.0655254,72.8826128,Avaliable,NA,https://www.google.com/maps/place/PRIYA+YADAV+STORE/data=!4m7!3m6!1s0x3be7c97fdf0e04af:0x3734ad159986c96a!8m2!3d19.0655254!4d72.8826128!16s%2Fg%2F11vt5gyx_d!19sChIJrwQO33_J5zsRasmGmRWtNDc?authuser=0&hl=en&rclk=1,PRIYA YADAV STORE,NA,,,"z=16,x=46035,y=29231"
J-TSVBm3J5zsRlselTq4HxwE,"E, shop1249 deary road, SG Barve Marg",General store,091372 12895,19.0646048,72.882307,Avaliable,NA,https://www.google.com/maps/place/imran+pan+bidi+shop/data=!4m7!3m6!1s0x3be7c96d069534f9:0x1c707ae4ea5c796!8m2!3d19.0646048!4d72.882307!16s%2Fg%2F11v1b957vx!19sChIJ-TSVBm3J5zsRlselTq4HxwE?authuser=0&hl=en&rclk=1,imran pan bidi shop,NA,,,"z=16,x=46035,y=29231"
Jc5yLmbXJ5zsR4oub646LCbE,Shop No 1,General store,097737 19184,19.0600537,72.8778392,Avaliable,Delivery,https://www.google.com/maps/place/Bismillah+Kirana+Store/data=!4m7!3m6!1s0x3be7c9b5998b9c73:0xb1098b8eeb9b8be2!8m2!3d19.0600537!4d72.8778392!16s%2Fg%2F11srq3wh6n!19sChIJc5yLmbXJ5zsR4oub646LCbE?authuser=0&hl=en&rclk=1,Bismillah Kirana Store,5.0 stars 1 Reviews,5,1,"z=16,x=46035,y=29232"
Jo1TCq1PJ5zsRLUp17rwQzL8,SG Barve Marg,Print shop,082868 39792,19.0627441,72.8828679,Avaliable,NA,https://www.google.com/maps/place/Sai+Pan+Bidi+Shop/data=!4m7!3m6!1s0x3be7c953abc254a3:0xbfcc10bcee754a2d!8m2!3d19.0627441!4d72.8828679!16s%2Fg%2F11sb3hh8zw!19sChIJo1TCq1PJ5zsRLUp17rwQzL8?authuser=0&hl=en&rclk=1,Sai Pan Bidi Shop,NA,,,"z=16,x=46035,y=29231"
JxYN_QwrJ5zsR9a0L-Ch10Ck,Muftie Azam Rd,General store,090121 29084,19.0588342,72.8771677,Avaliable,NA,https://www.google.com/maps/place/Shahar+Bano+Stores/data=!4m7!3m6!1s0x3be7c90a437f83c5:0x29d07528f80badf5!8m2!3d19.0588342!4d72.8771677!16s%2Fg%2F11vbxc2d_t!19sChIJxYN_QwrJ5zsR9a0L-Ch10Ck?authuser=0&hl=en&rclk=1,Shahar Bano Stores,NA,,,"z=16,x=46034,y=29232"
J1aGl8JXI5zsRAAAAsIwZQ0A,Shop No 7 Near Sbi Bank Prerna Chs,Pharmacy, 085910 41724,19.062921,72.8808832,Avaliable,NA,https://www.google.com/maps/place/REHAN+MEDICAL+%26GENERAL+STORES/data=!4m7!3m6!1s0x3be7c895f0a5a1d5:0x4043198cb0000000!8m2!3d19.062921!4d72.8808832!16s%2Fg%2F11rsslmn81!19sChIJ1aGl8JXI5zsRAAAAsIwZQ0A?authuser=0&hl=en&rclk=1,REHAN MEDICAL &GENERAL STORES,NA,,,"z=16,x=46035,y=29231"
JXenh9Q_J5zsR7Lry47BAO_4,"Shop No 9, Station Road",Fruit and vegetable store,079000 47499,19.0643413,72.8818579,Avaliable,NA,https://www.google.com/maps/place/Vinod+Trimbake+Fruit+Shop/data=!4m7!3m6!1s0x3be7c90ff5e1e95d:0xfe3b40b0e3f2baec!8m2!3d19.0643413!4d72.8818579!16s%2Fg%2F11ss4kj51z!19sChIJXenh9Q_J5zsR7Lry47BAO_4?authuser=0&hl=en&rclk=1,Vinod Trimbake Fruit Shop,NA,,,"z=16,x=46035,y=29231"
Js8n2QUjJ5zsRpUw3B5Qc_vw,"Shop D.07, Golden Plaza, bldg",Pet store,NA,19.0639648,72.8811151,Avaliable,In-store shopping,https://www.google.com/maps/place/Shaikh+pet+shop/data=!4m7!3m6!1s0x3be7c94841f6c9b3:0xfcfe1c9407374ca5!8m2!3d19.0639648!4d72.8811151!16s%2Fg%2F11s9xfps71!19sChIJs8n2QUjJ5zsRpUw3B5Qc_vw?authuser=0&hl=en&rclk=1,Shaikh pet shop,5.0 stars 3 Reviews,5,3,"z=16,x=46035,y=29231"
JNe6LI5bI5zsR2H8Y2wj4CfQ,"Shop No. Lhc, Brave Marg, 130, SG Barve Marg",Clothing store,098209 93348,19.0625328,72.8833046,Avaliable,In-store shopping,https://www.google.com/maps/place/Prabhat+Matching+Centre+-+Best+Saree+and+Dress+shop+in+kurla/data=!4m7!3m6!1s0x3be7c896238bee35:0xf409f808db187fd8!8m2!3d19.0625328!4d72.8833046!16s%2Fg%2F11cmd08p4y!19sChIJNe6LI5bI5zsR2H8Y2wj4CfQ?authuser=0&hl=en&rclk=1,Prabhat Matching Centre - Best Saree and Dress shop in kurla,4.6 stars 23 Reviews,4.6,23,"z=16,x=46036,y=29231"
JmwfNaLjJ5zsRzZRtrbypt-0,"Golden Plaza Co-operative Housing Society, SG Barve Marg",Fruit and vegetable store,062382 49517,19.0640195,72.8812931,Avaliable,NA,https://www.google.com/maps/place/Gajlu+Sk+Fruit+Shop/data=!4m7!3m6!1s0x3be7c9b868cd079b:0xedb7a9bcad6d94cd!8m2!3d19.0640195!4d72.8812931!16s%2Fg%2F11tx7wmgx7!19sChIJmwfNaLjJ5zsRzZRtrbypt-0?authuser=0&hl=en&rclk=1,Gajlu Sk Fruit Shop,NA,,,"z=16,x=46035,y=29231"
JDfFq7BLJ5zsR7QkZVSb_FpE,"Shop No 71 72, near Railway Station",Tobacco shop,081271 58682,19.0643418,72.8812212,Avaliable,NA,https://www.google.com/maps/place/M+S+D+PAN+SHOP+MUMBAI/data=!4m7!3m6!1s0x3be7c912ec6af10d:0x9116ff26551909ed!8m2!3d19.0643418!4d72.8812212!16s%2Fg%2F11svnj3hv3!19sChIJDfFq7BLJ5zsR7QkZVSb_FpE?authuser=0&hl=en&rclk=1,M S D PAN SHOP MUMBAI,NA,,,"z=16,x=46035,y=29231"
J-04NTYzJ5zsRDZvHnbDlr-k,Shop No. 1,Men's clothing store,090284 14418,19.0628683,72.8828549,Avaliable,Delivery,https://www.google.com/maps/place/Tiwari+Garment+Store/data=!4m7!3m6!1s0x3be7c98c4d0d4efb:0xe9afe5b09dc79b0d!8m2!3d19.0628683!4d72.8828549!16s%2Fg%2F11rzftlz48!19sChIJ-04NTYzJ5zsRDZvHnbDlr-k?authuser=0&hl=en&rclk=1,Tiwari Garment Store,5.0 stars 1 Reviews,5,1,"z=16,x=46035,y=29231"
JhUeG8_3J5zsRQn_3uMnyvSo,"Shop No 85, L/MHB/27, SG Barve Marg",Hardware store,086554 75030,19.0637037,72.8821055,Avaliable,In-store shopping,https://www.google.com/maps/place/New+Maharashtra+Store+Repairing/data=!4m7!3m6!1s0x3be7c9fdf3864785:0x2abdf2c9b8f77f42!8m2!3d19.0637037!4d72.8821055!16s%2Fg%2F11ks1586ql!19sChIJhUeG8_3J5zsRQn_3uMnyvSo?authuser=0&hl=en&rclk=1,New Maharashtra Store Repairing,NA,,,"z=16,x=46035,y=29231"
JXw9sc8_J5zsRblvhi6M7mmk,Shop No 5,Fruit and vegetable store,078005 03305,19.0632651,72.8833006,Avaliable,NA,https://www.google.com/maps/place/Niyaz+Vegetable+Shop/data=!4m7!3m6!1s0x3be7c9cf736c0f5f:0x699a3ba38be15b6e!8m2!3d19.0632651!4d72.8833006!16s%2Fg%2F11tk6phqqp!19sChIJXw9sc8_J5zsRblvhi6M7mmk?authuser=0&hl=en&rclk=1,Niyaz Vegetable Shop,NA,,,"z=16,x=46035,y=29231"
JqfVnGJbI5zsRfSAldL7pizg,"Shop No.14, Serene Shelter, next to Saraswat Bank, opp. Aryan Hospital",Baby store, 074987 86143,19.0635798,72.8822336,Avaliable,In-store shopping,https://www.google.com/maps/place/Diaper+Point/data=!4m7!3m6!1s0x3be7c8961867f5a9:0x388be9be7425207d!8m2!3d19.0635798!4d72.8822336!16s%2Fg%2F11bwydc6ny!19sChIJqfVnGJbI5zsRfSAldL7pizg?authuser=0&hl=en&rclk=1,Diaper Point,5.0 stars 38 Reviews,5,38,"z=16,x=46035,y=29231"
J79X_OL7I5zsRn7JreihBEIQ,"Shop No. 9, Sahara Rahivasi, Sangh Umar Wadi, Kurla E",Indian sweets shop, 099209 98272,19.0609727,72.8791366,Avaliable,In-store shopping,https://www.google.com/maps/place/Suleman+Mithai+Wale/data=!4m7!3m6!1s0x3be7c8be38ffd5ef:0x841041287a6bb29f!8m2!3d19.0609727!4d72.8791366!16s%2Fg%2F11t5n45jlm!19sChIJ79X_OL7I5zsRn7JreihBEIQ?authuser=0&hl=en&rclk=1,Suleman Mithai Wale,4.3 stars 3 Reviews,4.3,3,"z=16,x=46035,y=29232"
JZ_PZEJbI5zsRBAEmDW2wKC8,Shop No.G-20/21/22/23 Nehru Nagar S.G Barve Marg Kurla East,Supermarket, 022 2522 1516,19.0614869,72.8841189,Avaliable,In-store shopping,https://www.google.com/maps/place/Kirana+Ghar/data=!4m7!3m6!1s0x3be7c89610d9f367:0x2f28b06d0d260104!8m2!3d19.0614869!4d72.8841189!16s%2Fg%2F11c51sg_ld!19sChIJZ_PZEJbI5zsRBAEmDW2wKC8?authuser=0&hl=en&rclk=1,Kirana Ghar,4.0 stars 332 Reviews,4,332,"z=16,x=46036,y=29232"
JJ7NBgb3I5zsRMugIWOU2M1A,"S.G. Barve Road Nehru Nagar, Kurla",General store, 098925 60650,19.0623284,72.8836853,Avaliable,In-store shopping,https://www.google.com/maps/place/Geeta+General+Stores/data=!4m7!3m6!1s0x3be7c8bd8141b327:0x503336e55808e832!8m2!3d19.0623284!4d72.8836853!16s%2Fg%2F1pv6086c0!19sChIJJ7NBgb3I5zsRMugIWOU2M1A?authuser=0&hl=en&rclk=1,Geeta General Stores,4.5 stars 4 Reviews,4.5,4,"z=16,x=46036,y=29231"
Jp3ZMawjJ5zsRbgMsg7Ozi7A,"Shop No.9, near by Bmc Hospital",Grocery store,098205 93146,19.0602559,72.876806,Avaliable,Delivery,https://www.google.com/maps/place/Musa+Qaudri+Shop/data=!4m7!3m6!1s0x3be7c9086b4c76a7:0xb08bb3b3832c036e!8m2!3d19.0602559!4d72.876806!16s%2Fg%2F11p677rgb6!19sChIJp3ZMawjJ5zsRbgMsg7Ozi7A?authuser=0&hl=en&rclk=1,Musa Qaudri Shop,3.0 stars 1 Reviews,3,1,"z=16,x=46034,y=29232"
JOxwBiijJ5zsRQJhmzqYYHYQ,"Shop No.11, Shirin Shelter",Saree Shop,070217 08706,19.063684,72.8821759,Avaliable,In-store shopping,https://www.google.com/maps/place/Manmandir+Saree+And+Readymade+Centre/data=!4m7!3m6!1s0x3be7c9288a011c3b:0x841d18a6ce669840!8m2!3d19.063684!4d72.8821759!16s%2Fg%2F11kb2yx60p!19sChIJOxwBiijJ5zsRQJhmzqYYHYQ?authuser=0&hl=en&rclk=1,Manmandir Saree And Readymade Centre,5.0 stars 2 Reviews,5,2,"z=16,x=46035,y=29231"
JZcdIdL7I5zsRgl44k9C4yPQ,"Shop C-22, S G Brave Marg, Opposite Sawali Hotel, Nehru Nagar, Kurla East, Kurla East",Book store, 097024 40927,19.0598946,72.877391,Avaliable,In-store shopping,https://www.google.com/maps/place/Rajkamal+Stores/data=!4m7!3m6!1s0x3be7c8be7448c765:0xf4c8b8d093385e82!8m2!3d19.0598946!4d72.877391!16s%2Fg%2F1tfr_jpk!19sChIJZcdIdL7I5zsRgl44k9C4yPQ?authuser=0&hl=en&rclk=1,Rajkamal Stores,3.0 stars 4 Reviews,3,4,"z=16,x=46034,y=29232"
JQbBWbc7J5zsRlUryN1FSg2c,"SHOP NO 01, Kurla 400024",Clothing store,099875 38708,19.062592,72.8789558,Avaliable,NA,https://www.google.com/maps/place/AASIF+CLOTHES/data=!4m7!3m6!1s0x3be7c9ce6d56b041:0x6783525137f24a95!8m2!3d19.062592!4d72.8789558!16s%2Fg%2F11vm5tm_gg!19sChIJQbBWbc7J5zsRlUryN1FSg2c?authuser=0&hl=en&rclk=1,AASIF CLOTHES,NA,,,"z=16,x=46035,y=29231"
JVfZggb3I5zsRt_YqoKrNOfY,S.G. Barve Road,Clothing store,NA,19.0623041,72.8837434,Avaliable,In-store shopping,https://www.google.com/maps/place/Dhanashree+Cloth+Stores+-+Best+Matching+Center/data=!4m7!3m6!1s0x3be7c8bd8160f655:0xf639cdaaa02af6b7!8m2!3d19.0623041!4d72.8837434!16s%2Fg%2F1ptx6td68!19sChIJVfZggb3I5zsRt_YqoKrNOfY?authuser=0&hl=en&rclk=1,Dhanashree Cloth Stores - Best Matching Center,NA,,,"z=16,x=46036,y=29231"
JmWW9aJbI5zsRdLlTlsYVO_Q,"Shop No. 3, B Wing, Kurla Kadam Housing Society Li, Akbar Sultan Khan Chowk, Bhiva Bapu Magre Marg, Nehru Nagar, Kurla East",Pharmacy, 098339 27305,19.0647081,72.8822332,Avaliable,Delivery,https://www.google.com/maps/place/Maruti+medical+stores/data=!4m7!3m6!1s0x3be7c89668bd6599:0xf43b15c69653b974!8m2!3d19.0647081!4d72.8822332!16s%2Fg%2F1pv02548b!19sChIJmWW9aJbI5zsRdLlTlsYVO_Q?authuser=0&hl=en&rclk=1,Maruti medical stores,3.0 stars 4 Reviews,3,4,"z=16,x=46035,y=29231"
JLx6BeJbI5zsRdTxAwnciRIE,"Al/AH/768,S.G. Barve Road Police Colony",Cell phone store,098214 12193,19.0647393,72.881119,Avaliable,NA,https://www.google.com/maps/place/Prince+Store/data=!4m7!3m6!1s0x3be7c89678811e2f:0x81442277c2403c75!8m2!3d19.0647393!4d72.881119!16s%2Fg%2F1vp6ynm3!19sChIJLx6BeJbI5zsRdTxAwnciRIE?authuser=0&hl=en&rclk=1,Prince Store,NA,,,"z=16,x=46035,y=29231"
JudPXsZbJ5zsRSt_R_t9LE4s,01,Tea store,093693 01635,19.0589169,72.8801629,Avaliable,NA,https://www.google.com/maps/place/Khan+Tea+Shop/data=!4m7!3m6!1s0x3be7c996b1d7d3b9:0x8b134bdffed1df4a!8m2!3d19.0589169!4d72.8801629!16s%2Fg%2F11t870s0hh!19sChIJudPXsZbJ5zsRSt_R_t9LE4s?authuser=0&hl=en&rclk=1,Khan Tea Shop,NA,,,"z=16,x=46035,y=29232"
JJaQ3j73I5zsR795wRzMNY34,"Shop No. C, 9, SG Barve Marg",General store, 098196 74076,19.0622521,72.8830851,Avaliable,In-store shopping,https://www.google.com/maps/place/Mahalaxmi+General+Merchant/data=!4m7!3m6!1s0x3be7c8bd8f37a425:0x7e630d334770deef!8m2!3d19.0622521!4d72.8830851!16s%2Fg%2F1ptwb8m60!19sChIJJaQ3j73I5zsR795wRzMNY34?authuser=0&hl=en&rclk=1,Mahalaxmi General Merchant,5.0 stars 5 Reviews,5,5,"z=16,x=46035,y=29231"
JbXvGmIzJ5zsR_yH1dBSpCHU,Shop No 5 Nehru Nagar Sg Barve Marg Shakar Nagar,General store,086938 02677,19.06335,72.8823737,Avaliable,NA,https://www.google.com/maps/place/Prakash+Janrdhana+Banger+Store/data=!4m7!3m6!1s0x3be7c98c98c67b6d:0x7508a91474f521ff!8m2!3d19.06335!4d72.8823737!16s%2Fg%2F11vqs_grfj!19sChIJbXvGmIzJ5zsR_yH1dBSpCHU?authuser=0&hl=en&rclk=1,Prakash Janrdhana Banger Store,NA,,,"z=16,x=46035,y=29231"
JUdNMnpXI5zsR8qgPBMwTFnc,32,Chicken & Mutton Shop, 093213 92864,19.0633544,72.8782877,Avaliable,NA,https://www.google.com/maps/place/Royal+Chicken+Shop/data=!4m7!3m6!1s0x3be7c8959e4cd351:0x771613cc040fa8f2!8m2!3d19.0633544!4d72.8782877!16s%2Fg%2F11t55_2hgd!19sChIJUdNMnpXI5zsR8qgPBMwTFnc?authuser=0&hl=en&rclk=1,Royal Chicken Shop,NA,,,"z=16,x=46035,y=29231"
JoSr5ITbJ5zsR9Jaw4nXFmds,"Shop 65, Savera CHS, opp. 151 Bldg, next to Bilali Masjid Road",Medical supply store, 070456 26433,19.0643082,72.8821581,Avaliable,Delivery,https://www.google.com/maps/place/LIFECARE+MEDICAL+%26+GENERAL+STORES/data=!4m7!3m6!1s0x3be7c93621f92aa1:0xdb99c575e2b096f4!8m2!3d19.0643082!4d72.8821581!16s%2Fg%2F11spx49j24!19sChIJoSr5ITbJ5zsR9Jaw4nXFmds?authuser=0&hl=en&rclk=1,LIFECARE MEDICAL & GENERAL STORES,NA,,,"z=16,x=46035,y=29231"
JdUO5ZcDJ5zsRpL8XGry-Gqs,Shop Number.1 D-Wing Nehru Nagar Opposite Prabhat Medical,Gift shop, 091670 23931,19.0624969,72.8833347,Avaliable,In-store shopping,https://www.google.com/maps/place/Uplload+link+into+future+-+Best+Gift+Store+in+kurla+East/data=!4m7!3m6!1s0x3be7c9c065b94375:0xab1abebc1a17bfa4!8m2!3d19.0624969!4d72.8833347!16s%2Fg%2F11f7b4w9nx!19sChIJdUO5ZcDJ5zsRpL8XGry-Gqs?authuser=0&hl=en&rclk=1,Uplload link into future - Best Gift Store in kurla East,4.8 stars 21 Reviews,4.8,21,"z=16,x=46036,y=29231"
JTR_s6r3I5zsRe9KpS2EfiLk,"Shop No. 7/8,Building No, 52, Ashirwad Soc",Grocery store, 022 2527 3316,19.0609082,72.8824174,Avaliable,In-store shopping,https://www.google.com/maps/place/Only+Fresh/data=!4m7!3m6!1s0x3be7c8bdeaec1f4d:0xb9881f614ba9d27b!8m2!3d19.0609082!4d72.8824174!16s%2Fg%2F1ptw8940x!19sChIJTR_s6r3I5zsRe9KpS2EfiLk?authuser=0&hl=en&rclk=1,Only Fresh,4.2 stars 124 Reviews,4.2,124,"z=16,x=46035,y=29232"
JK0mudJbI5zsRsYY-uNMCPRY,Kedarnath Mandir Marg,Spice store, 096641 21244,19.0639487,72.8813757,Avaliable,In-store shopping,https://www.google.com/maps/place/Maharashtra+Masala+Shop/data=!4m7!3m6!1s0x3be7c89674ae492b:0x163d02d3b83e86b1!8m2!3d19.0639487!4d72.8813757!16s%2Fg%2F1ptypmhnp!19sChIJK0mudJbI5zsRsYY-uNMCPRY?authuser=0&hl=en&rclk=1,Maharashtra Masala Shop,4.7 stars 7 Reviews,4.7,7,"z=16,x=46035,y=29231"
JPyc0dJbI5zsRLC49rI_BwSU,"3V7J+MG7, SG Barve Marg",Cell phone store, 096192 55816,19.0641536,72.8812931,Avaliable,In-store shopping,https://www.google.com/maps/place/Royal+Store/data=!4m7!3m6!1s0x3be7c8967434273f:0x25c1c18fac3d2e2c!8m2!3d19.0641536!4d72.8812931!16s%2Fg%2F11b630bq_w!19sChIJPyc0dJbI5zsRLC49rI_BwSU?authuser=0&hl=en&rclk=1,Royal Store,5.0 stars 3 Reviews,5,3,"z=16,x=46035,y=29231"
JEWRJXBTJ5zsR01k1ZdunoVA,Shop No.10,Fruit and vegetable store,098203 18843,19.0599549,72.8768919,Avaliable,NA,https://www.google.com/maps/place/Arif+Quadri+Shop/data=!4m7!3m6!1s0x3be7c9145c496411:0x50a1a7db653559d3!8m2!3d19.0599549!4d72.8768919!16s%2Fg%2F11vkclr_dl!19sChIJEWRJXBTJ5zsR01k1ZdunoVA?authuser=0&hl=en&rclk=1,Arif Quadri Shop,5.0 stars 1 Reviews,5,1,"z=16,x=46034,y=29232"
J6e0PKJbI5zsR_QASSWU5Vc4,"B Wing, Baba Vihar, Kurla W Sta Rd",Indian grocery store, 097572 87203,19.0628697,72.8830524,Avaliable,In-store shopping,https://www.google.com/maps/place/Ramdev+Grain+Stores/data=!4m7!3m6!1s0x3be7c896280fede9:0xce553965491200fd!8m2!3d19.0628697!4d72.8830524!16s%2Fg%2F1w_vlr7q!19sChIJ6e0PKJbI5zsR_QASSWU5Vc4?authuser=0&hl=en&rclk=1,Ramdev Grain Stores,4.5 stars 37 Reviews,4.5,37,"z=16,x=46035,y=29231"
Jk4PSXAfJ5zsRmDXEzf1EesI,"ST Bus Depot, near Kurla",Produce market,NA,19.0640631,72.8825787,Avaliable,NA,https://www.google.com/maps/place/Arfa+Store/data=!4m7!3m6!1s0x3be7c9075cd28393:0xc27a44fdcdc43598!8m2!3d19.0640631!4d72.8825787!16s%2Fg%2F11vds1d4y1!19sChIJk4PSXAfJ5zsRmDXEzf1EesI?authuser=0&hl=en&rclk=1,Arfa Store,NA,,,"z=16,x=46035,y=29231"
JWzfy8SzJ5zsRpaXoUYSo6_w,Buntara Bhavan,Craft store,073048 45400,19.0578709,72.8804011,Avaliable,NA,https://www.google.com/maps/place/Jalaluddin+Store/data=!4m7!3m6!1s0x3be7c92cf1f2375b:0xfceba88451e8a5a5!8m2!3d19.0578709!4d72.8804011!16s%2Fg%2F11kr9jwxb7!19sChIJWzfy8SzJ5zsRpaXoUYSo6_w?authuser=0&hl=en&rclk=1,Jalaluddin Store,5.0 stars 1 Reviews,5,1,"z=16,x=46035,y=29232"
JO11JBPjJ5zsRLOByoxfUYYw,"Shop no G/43, Besides Beauty Infotech, Old Bus Stop, near Nehru nagar, opposite Monginis cake shop",Book store, 088507 79542,19.0618775,72.8838034,Avaliable,In-store shopping,https://www.google.com/maps/place/Shree+Yashwant+The+Book+Shop/data=!4m7!3m6!1s0x3be7c9f804495d3b:0x8c61d417a372e02c!8m2!3d19.0618775!4d72.8838034!16s%2Fg%2F11txmfgr3t!19sChIJO11JBPjJ5zsRLOByoxfUYYw?authuser=0&hl=en&rclk=1,Shree Yashwant The Book Shop,3.0 stars 5 Reviews,3,5,"z=16,x=46036,y=29232"
JRepcg_XJ5zsR7CEFrEDcz58,"A' Shop, Baba Vihar, 6, SG Barve Marg",Sweet shop, 082914 04412,19.0632241,72.8825232,Avaliable,In-store shopping,https://www.google.com/maps/place/Ambika+sweets+and+farsan+mart/data=!4m7!3m6!1s0x3be7c9f5835cea45:0x9fcfdc40ac0521ec!8m2!3d19.0632241!4d72.8825232!16s%2Fg%2F11f7r0jcyh!19sChIJRepcg_XJ5zsR7CEFrEDcz58?authuser=0&hl=en&rclk=1,Ambika sweets and farsan mart,4.9 stars 16 Reviews,4.9,16,"z=16,x=46035,y=29231"
JPdCv7r3I5zsRS3YLHl6nZWY,"3V6J+HVR, Kranti Nagar Near Angad Sahib Gurudwara and Central Rly Colony, Kurla East",General store, 099874 42513,19.0614802,72.8821429,Avaliable,In-store shopping,https://www.google.com/maps/place/Vijay+Store/data=!4m7!3m6!1s0x3be7c8bdeeafd03d:0x6665a75e1e0b764b!8m2!3d19.0614802!4d72.8821429!16s%2Fg%2F11bwyxlbdt!19sChIJPdCv7r3I5zsRS3YLHl6nZWY?authuser=0&hl=en&rclk=1,Vijay Store,5.0 stars 2 Reviews,5,2,"z=16,x=46035,y=29232"
J8b--ZIfJ5zsRIHZUqiZvJf8,Shop No 03,General store,081678 58820,19.0623606,72.8788269,Avaliable,NA,https://www.google.com/maps/place/Saddik+Chicken+Shop/data=!4m7!3m6!1s0x3be7c98764bebff1:0xff256f26aa547620!8m2!3d19.0623606!4d72.8788269!16s%2Fg%2F11t62zfcwm!19sChIJ8b--ZIfJ5zsRIHZUqiZvJf8?authuser=0&hl=en&rclk=1,Saddik Chicken Shop,NA,,,"z=16,x=46035,y=29231"
J-bTbns3J5zsR3ea8TibxNUE,Shop No 07,Sports nutrition store, 091724 21292,19.0653023,72.8823228,Avaliable,In-store shopping,https://www.google.com/maps/place/ONE+SCOOP+NUTRITION/data=!4m7!3m6!1s0x3be7c9cd9edbb4f9:0x4135f1264ebce6dd!8m2!3d19.0653023!4d72.8823228!16s%2Fg%2F11rqj3s9lf!19sChIJ-bTbns3J5zsR3ea8TibxNUE?authuser=0&hl=en&rclk=1,ONE SCOOP NUTRITION,4.8 stars 11 Reviews,4.8,11,"z=16,x=46035,y=29231"
JpxKksJDI5zsRKcFfLyWFhHI,undefined,General store,NA,19.0693135,72.8859518,Avaliable,Delivery,https://www.google.com/maps/place/Kurla+Stores/data=!4m7!3m6!1s0x3be7c890b0a412a7:0x728485252f5fc129!8m2!3d19.0693135!4d72.8859518!16s%2Fg%2F11sym9v_my!19sChIJpxKksJDI5zsRKcFfLyWFhHI?authuser=0&hl=en&rclk=1,Kurla Stores,NA,,,"z=16,x=46036,y=29230"
JE1Q1J5zJ5zsR9MXj0Uzh_jQ,"64, Savera Building",General store, 083696 67177,19.0644245,72.8818911,Avaliable,NA,https://www.google.com/maps/place/Novelty+Soap+Centre+And+General+Store/data=!4m7!3m6!1s0x3be7c99c27355413:0x34fee14cd1e3c5f4!8m2!3d19.0644245!4d72.8818911!16s%2Fg%2F11q2pdmn7g!19sChIJE1Q1J5zJ5zsR9MXj0Uzh_jQ?authuser=0&hl=en&rclk=1,Novelty Soap Centre And General Store,5.0 stars 2 Reviews,5,2,"z=16,x=46035,y=29231"
JtdtMIzrJ5zsRtn3M2ocV7w0,"Golden Plaza Co-operative Housing Society, B 13 14",Cell phone store, 074000 69339,19.0641434,72.8812415,Avaliable,In-store shopping,"https://www.google.com/maps/place/Top+10+Store+%7C+Mobiles,+TV,+Laptop,+Accessories+in+Kurla+East+Nehru+Nagar/data=!4m7!3m6!1s0x3be7c93a234cdbb5:0xdef1587dacc7db6!8m2!3d19.0641434!4d72.8812415!16s%2Fg%2F11rgn1g5fn!19sChIJtdtMIzrJ5zsRtn3M2ocV7w0?authuser=0&hl=en&rclk=1","Top 10 Store | Mobiles, TV, Laptop, Accessories in Kurla East Nehru Nagar",4.7 stars 266 Reviews,4.7,266,"z=16,x=46035,y=29231"
JGYID4ZXI5zsRe4rQV66ee7I,"Shop No C1,C2 Babavihar Angolimala",Supermarket, 022 2529 7744,19.0627249,72.8831226,Avaliable,In-store shopping,https://www.google.com/maps/place/BANIYA+SUPER+MART/data=!4m7!3m6!1s0x3be7c895e1038219:0xb27b9eae57d08a7b!8m2!3d19.0627249!4d72.8831226!16s%2Fg%2F11cm15tkff!19sChIJGYID4ZXI5zsRe4rQV66ee7I?authuser=0&hl=en&rclk=1,BANIYA SUPER MART,4.0 stars 497 Reviews,4,497,"z=16,x=46035,y=29231"
JXZlx3dmx3DsRkcOVzhBm2jc,Shop No 02,Tea store,091675 62565,19.0626032,72.879007,Avaliable,NA,https://www.google.com/maps/place/Irani+Tea+Shop/data=!4m7!3m6!1s0x3bdcb1d9dd71995d:0x37da6610ce95c391!8m2!3d19.0626032!4d72.879007!16s%2Fg%2F11thhsq2sp!19sChIJXZlx3dmx3DsRkcOVzhBm2jc?authuser=0&hl=en&rclk=1,Irani Tea Shop,4.3 stars 3 Reviews,4.3,3,"z=16,x=46035,y=29231"
Jq6qqur_I5zsR-uAzsiLJrt4,"3V7J+JGX, SG Barve Marg",Pharmacy,NA,19.0641154,72.8813615,Avaliable,Delivery,https://www.google.com/maps/place/Ranjan+Medical+%26+General+Stores/data=!4m7!3m6!1s0x3be7c8bfbaaaaaab:0xdeaec922b233e0fa!8m2!3d19.0641154!4d72.8813615!16s%2Fg%2F1tm__ptj!19sChIJq6qqur_I5zsR-uAzsiLJrt4?authuser=0&hl=en&rclk=1,Ranjan Medical & General Stores,3.2 stars 10 Reviews,3.2,10,"z=16,x=46035,y=29231"
J9w3Vh73I5zsRD7qeO576dp0,"3V6M+8RH, SG Barve Marg",Sweet shop, 093226 22769,19.0608049,72.8846048,Avaliable,In-store shopping,https://www.google.com/maps/place/Radha+Krishna+Sweets+%26+Hot+Farsan+Mart/data=!4m7!3m6!1s0x3be7c8bd87d50df7:0x9d76fa9e3b9eba0f!8m2!3d19.0608049!4d72.8846048!16s%2Fg%2F1pty7rgpl!19sChIJ9w3Vh73I5zsRD7qeO576dp0?authuser=0&hl=en&rclk=1,Radha Krishna Sweets & Hot Farsan Mart,NA,,,"z=16,x=46036,y=29232"
JWQSUwL_I5zsRqn3Iqwwvldw,"Kasaiwada, Kurla, Ashok Samrat Rd",Paan shop,NA,19.0605699,72.8769728,Avaliable,NA,https://www.google.com/maps/place/Ustad+Pan+Shop/data=!4m7!3m6!1s0x3be7c8bfc0940459:0xdc952f0cabc87daa!8m2!3d19.0605699!4d72.8769728!16s%2Fg%2F1ptyjvxsf!19sChIJWQSUwL_I5zsRqn3Iqwwvldw?authuser=0&hl=en&rclk=1,Ustad Pan Shop,5.0 stars 2 Reviews,5,2,"z=16,x=46034,y=29232"
JazdjA5bI5zsRlFTwiyJi6jI,"3V7J+56G, Kedarnath Mandir Marg",Store, 091673 18877,19.0629327,72.880582,Avaliable,In-store shopping,https://www.google.com/maps/place/S.K.+Sports+%26+Garment/data=!4m7!3m6!1s0x3be7c8960363376b:0x32ea62228bf05494!8m2!3d19.0629327!4d72.880582!16s%2Fg%2F1th7lc8_!19sChIJazdjA5bI5zsRlFTwiyJi6jI?authuser=0&hl=en&rclk=1,S.K. Sports & Garment,3.5 stars 6 Reviews,3.5,6,"z=16,x=46035,y=29231"
JyXEOc5bI5zsR_whTED4nw8A,"Magre Chawl,A-L-H,725,Nehru Nagar,S.G.Barve Marg,Near kurla East Mumbai, 400024",Casual Clothing Store, 098333 09917,19.0642497,72.8819785,Avaliable,In-store shopping,https://www.google.com/maps/place/DRESSCO/data=!4m7!3m6!1s0x3be7c896730e71c9:0xc0c3273e105308ff!8m2!3d19.0642497!4d72.8819785!16s%2Fg%2F11bzt3460q!19sChIJyXEOc5bI5zsR_whTED4nw8A?authuser=0&hl=en&rclk=1,DRESSCO,4.7 stars 3 Reviews,4.7,3,"z=16,x=46035,y=29231"
JnwKX1pXI5zsRtinsoidMtZg,"Shop no 15/16, East point market, near Railway Station",Clothing store, 099679 10699,19.064997,72.8812465,Avaliable,In-store shopping,https://www.google.com/maps/place/Deluxe+Collection/data=!4m7!3m6!1s0x3be7c895d697029f:0x98b54c27a2ec29b6!8m2!3d19.064997!4d72.8812465!16s%2Fg%2F1tw_lq73!19sChIJnwKX1pXI5zsRtinsoidMtZg?authuser=0&hl=en&rclk=1,Deluxe Collection,"4.2 stars 1,168 Reviews",4.2,,"z=16,x=46035,y=29231"
Jjd-GEpbI5zsRj0pTk-_pFKg,Shop 5,Grocery store, 099674 08604,19.0636306,72.8818487,Avaliable,In-store shopping,https://www.google.com/maps/place/Girnar+Tea/data=!4m7!3m6!1s0x3be7c8961286df8d:0xa814e9ef93534a8f!8m2!3d19.0636306!4d72.8818487!16s%2Fg%2F11t55zqrh3!19sChIJjd-GEpbI5zsRj0pTk-_pFKg?authuser=0&hl=en&rclk=1,Girnar Tea,4.0 stars 2 Reviews,4,2,"z=16,x=46035,y=29231"
Jn-YM-d3J5zsRHXiyBy6_uRA,"Shop no D4 CHS, SG Barve Marg",Aquarium shop, 075067 75795,19.0636982,72.8811519,Avaliable,In-store shopping,https://www.google.com/maps/place/Ocean+Space+Aquarium+%7C+best+shop+in+kurla+fish+marcket/data=!4m7!3m6!1s0x3be7c9ddf90ce69f:0x10b9bf2e07b2781d!8m2!3d19.0636982!4d72.8811519!16s%2Fg%2F11n2q0yck2!19sChIJn-YM-d3J5zsRHXiyBy6_uRA?authuser=0&hl=en&rclk=1,Ocean Space Aquarium | best shop in kurla fish marcket,5.0 stars 2 Reviews,5,2,"z=16,x=46035,y=29231"
JDy3CP1TJ5zsR-gSFHk0DHxk,"shop no 9 building no, 1 or 2, SG Barve Marg",Bird shop,091678 66961,19.063628,72.880867,Avaliable,In-store shopping,https://www.google.com/maps/place/Iqra+live+stock/data=!4m7!3m6!1s0x3be7c9543fc22d0f:0x191f034d1e8504fa!8m2!3d19.063628!4d72.880867!16s%2Fg%2F11qbbcdq2_!19sChIJDy3CP1TJ5zsR-gSFHk0DHxk?authuser=0&hl=en&rclk=1,Iqra live stock,3.3 stars 6 Reviews,3.3,6,"z=16,x=46035,y=29231"
JzbBmTEnJ5zsRzyBsmQVZR6I,"400024, D15, SG Barve Marg",Clothing store,NA,19.0632,72.8825364,Avaliable,In-store shopping,https://www.google.com/maps/place/Mukesh+cloth+and+ready-made+centre/data=!4m7!3m6!1s0x3be7c9494c66b0cd:0xa2475905996c20cf!8m2!3d19.0632!4d72.8825364!16s%2Fg%2F11ghfpz6k0!19sChIJzbBmTEnJ5zsRzyBsmQVZR6I?authuser=0&hl=en&rclk=1,Mukesh cloth and ready-made centre,4.3 stars 8 Reviews,4.3,8,"z=16,x=46035,y=29231"
JVZEPKPrJ5zsRZ0i02JIeirI,"Shop. No 572, E, SG Barve Marg",Watch store, 091679 27988,19.0637293,72.8818752,Avaliable,NA,https://www.google.com/maps/place/Subhan+Watch+Shop/data=!4m7!3m6!1s0x3be7c9fa280f9155:0xb28a1e92d8b44867!8m2!3d19.0637293!4d72.8818752!16s%2Fg%2F11pzyvhvmd!19sChIJVZEPKPrJ5zsRZ0i02JIeirI?authuser=0&hl=en&rclk=1,Subhan Watch Shop,NA,,,"z=16,x=46035,y=29231"
JczTg043J5zsRUjpXQHdkwB0,"Shop No HC-C-27, SG Barve Marg, opp. Sawali Hotel",Cell phone store, 079771 90794,19.0626157,72.8828396,Avaliable,In-store shopping,https://www.google.com/maps/place/NEXT+MOBILE+STORE/data=!4m7!3m6!1s0x3be7c98dd3e03473:0x1dc0647740573a52!8m2!3d19.0626157!4d72.8828396!16s%2Fg%2F11pz6skf_f!19sChIJczTg043J5zsRUjpXQHdkwB0?authuser=0&hl=en&rclk=1,NEXT MOBILE STORE,4.0 stars 4 Reviews,4,4,"z=16,x=46035,y=29231"
JY9VyJt3J5zsRtNEOyZSRji8,"Shop No H-1, East Point Mall, Kurla W Sta Rd, near Deluxe",Supermarket,NA,19.065079,72.881579,Avaliable,In-store shopping,https://www.google.com/maps/place/N%26N+Imported+chocolate/data=!4m7!3m6!1s0x3be7c9dd2672d563:0x2f8e9194c90ed1b4!8m2!3d19.065079!4d72.881579!16s%2Fg%2F11k597xv1y!19sChIJY9VyJt3J5zsRtNEOyZSRji8?authuser=0&hl=en&rclk=1,N&N Imported chocolate,4.9 stars 8 Reviews,4.9,8,"z=16,x=46035,y=29231"
JhzqCaDnJ5zsRHw1UgsYTCYY,"SHOP NO. 7,BLDG. NO. 30, PRERANA CHS LTD",Pharmacy, 098335 33464,19.0625899,72.8803811,Avaliable,NA,https://www.google.com/maps/place/DAVA+CENTER+PHARMACY+AND+GENERAL+STORE/data=!4m7!3m6!1s0x3be7c93968823a87:0x860913c682540d1f!8m2!3d19.0625899!4d72.8803811!16s%2Fg%2F11y1f0yzl5!19sChIJhzqCaDnJ5zsRHw1UgsYTCYY?authuser=0&hl=en&rclk=1,DAVA CENTER PHARMACY AND GENERAL STORE,5.0 stars 2 Reviews,5,2,"z=16,x=46035,y=29231"
JQWclEpbI5zsRLfVshLNJ_Eg,"shop no.E/2, SG Barve Marg",Cell phone store, 084333 33844,19.063631,72.8818496,Avaliable,In-store shopping,https://www.google.com/maps/place/Hi+Tech+Mobile+Shop/data=!4m7!3m6!1s0x3be7c89612256741:0x48fc49b3846cf52d!8m2!3d19.063631!4d72.8818496!16s%2Fg%2F11b631d86y!19sChIJQWclEpbI5zsRLfVshLNJ_Eg?authuser=0&hl=en&rclk=1,Hi Tech Mobile Shop,3.3 stars 9 Reviews,3.3,9,"z=16,x=46035,y=29231"
JKSo-hb3I5zsRNp9h4uyk-UU,"Shop No, B19, SG Barve Marg",Cake shop,NA,19.0616534,72.8834647,Avaliable,In-store shopping,https://www.google.com/maps/place/Monginis+Cake+Shop/data=!4m7!3m6!1s0x3be7c8bd853e2a29:0x45f9a4ece2619f36!8m2!3d19.0616534!4d72.8834647!16s%2Fg%2F1tjym59j!19sChIJKSo-hb3I5zsRNp9h4uyk-UU?authuser=0&hl=en&rclk=1,Monginis Cake Shop,4.8 stars 139 Reviews,4.8,139,"z=16,x=46036,y=29232"
JOe6FDI7I5zsRfySe50oNM44,"building no. 64, Kurla Kajrolkar CHSL, Nehru nagar, Kurla East.",Tropical fish store, 098201 26983,19.0606672,72.88344,Avaliable,In-store shopping,https://www.google.com/maps/place/Fish-O-Fish+Aquarium/data=!4m7!3m6!1s0x3be7c88e0c85ee39:0x8e330d4ae79e247f!8m2!3d19.0606672!4d72.88344!16s%2Fg%2F1vl9pz9z!19sChIJOe6FDI7I5zsRfySe50oNM44?authuser=0&hl=en&rclk=1,Fish-O-Fish Aquarium,4.2 stars 411 Reviews,4.2,411,"z=16,x=46036,y=29232"
JxWjfKtvJ5zsRvY1R0BoWG58,"Shop Number.B-14, Dion Shelter Golden Plaza CHS",Cell phone store, 097021 23786,19.0628148,72.882629,Avaliable,In-store shopping,https://www.google.com/maps/place/Cell+world+the+mobile+shop/data=!4m7!3m6!1s0x3be7c9db2adf68c5:0x9f1b161ad0518dbd!8m2!3d19.0628148!4d72.882629!16s%2Fg%2F11f5v9qgqx!19sChIJxWjfKtvJ5zsRvY1R0BoWG58?authuser=0&hl=en&rclk=1,Cell world the mobile shop,4.1 stars 10 Reviews,4.1,10,"z=16,x=46035,y=29231"
JvXvrmr3I5zsRc2dbpQsQjoc,"Shop No. B, 1/6, SG Barve Marg, near Building No 73",Fruit and vegetable store, 098201 10363,19.0617696,72.8833469,Avaliable,In-store shopping,https://www.google.com/maps/place/BK+Fruits/data=!4m7!3m6!1s0x3be7c8bd9aeb7bbd:0x878e100ba55b6773!8m2!3d19.0617696!4d72.8833469!16s%2Fg%2F1ptvvnr4h!19sChIJvXvrmr3I5zsRc2dbpQsQjoc?authuser=0&hl=en&rclk=1,BK Fruits,4.7 stars 38 Reviews,4.7,38,"z=16,x=46036,y=29232"
JMb8h45XI5zsRQrotPpbuz8M,"Shop No. Slh, Shop No. 16, 219, Kedarnath Mandir Marg",Watch store, 098191 67922,19.0631955,72.8808853,Avaliable,NA,https://www.google.com/maps/place/Rakesh+Watch+Company/data=!4m7!3m6!1s0x3be7c895e321bf31:0xc3cfee963e2dba42!8m2!3d19.0631955!4d72.8808853!16s%2Fg%2F11kjgbr5w0!19sChIJMb8h45XI5zsRQrotPpbuz8M?authuser=0&hl=en&rclk=1,Rakesh Watch Company,NA,,,"z=16,x=46035,y=29231"
Jx05EN5rJ5zsRipLUr9nF9Pc,"Shop /03/ Seeta Sandana Kurla Near Me Mehtab Gali, Road",Grocery store,084336 15252,19.0711236,72.8794562,Avaliable,NA,https://www.google.com/maps/place/Shop+No+3+%2F+Seeta+Sadan+Cst+Road+Mehtab+Line+Kurla/data=!4m7!3m6!1s0x3be7c99a37444ec7:0xf7f4c5d9afd4928a!8m2!3d19.0711236!4d72.8794562!16s%2Fg%2F11vkb_ffgk!19sChIJx05EN5rJ5zsRipLUr9nF9Pc?authuser=0&hl=en&rclk=1,Shop No 3 / Seeta Sadan Cst Road Mehtab Line Kurla,NA,,,"z=16,x=46035,y=29230"
Jm8Jmd7LJ5zsRVv6A-WNJcGA,"Shop number d-7, Golden Plaza, bldg",Aquarium shop,NA,19.0639648,72.8811151,Avaliable,In-store shopping,https://www.google.com/maps/place/S.M.aquarium/data=!4m7!3m6!1s0x3be7c9b27766c29b:0x60704963f980fe56!8m2!3d19.0639648!4d72.8811151!16s%2Fg%2F11kcbk_dlw!19sChIJm8Jmd7LJ5zsRVv6A-WNJcGA?authuser=0&hl=en&rclk=1,S.M.aquarium,4.9 stars 16 Reviews,4.9,16,"z=16,x=46035,y=29231"
JBShCl4nJ5zsRP48t_bXL2os,"Shop no.1, Bakshi Building",Indian grocery store, 096642 87188,19.0602904,72.8768843,Avaliable,In-store shopping,https://www.google.com/maps/place/Labbaik+store/data=!4m7!3m6!1s0x3be7c98997422805:0x8bdacbb5fd2d8f3f!8m2!3d19.0602904!4d72.8768843!16s%2Fg%2F11c52pvby2!19sChIJBShCl4nJ5zsRP48t_bXL2os?authuser=0&hl=en&rclk=1,Labbaik store,4.4 stars 14 Reviews,4.4,14,"z=16,x=46034,y=29232"
Jp-mhC5bI5zsRFVeSdI5X9k4,"Shop 21, SG Barve Marg, adjacent to Golden Plaza Co-operative Housing Society, near Bharat Motor Training School",Tropical fish store, 090828 10981,19.0637276,72.8811778,Avaliable,In-store shopping,https://www.google.com/maps/place/Om+Aquarium/data=!4m7!3m6!1s0x3be7c8960ba1e9a7:0x4ef6578e74925715!8m2!3d19.0637276!4d72.8811778!16s%2Fg%2F11sqczrvwf!19sChIJp-mhC5bI5zsRFVeSdI5X9k4?authuser=0&hl=en&rclk=1,Om Aquarium,4.9 stars 40 Reviews,4.9,40,"z=16,x=46035,y=29231"
JP-WnQTDJ5zsRfcwNj0O-70o,"Bldg.No.36 Surbhi, S.G. Barve Marg, Kurla East, opposite Golden Plaza Co-operative Housing Society",Pet store,NA,19.0637794,72.88132,Avaliable,In-store shopping,https://www.google.com/maps/place/Hannure+pet+products/data=!4m7!3m6!1s0x3be7c93041a7e53f:0x4aefbe438f0dcc7d!8m2!3d19.0637794!4d72.88132!16s%2Fg%2F11h4v85932!19sChIJP-WnQTDJ5zsRfcwNj0O-70o?authuser=0&hl=en&rclk=1,Hannure pet products,4.6 stars 43 Reviews,4.6,43,"z=16,x=46035,y=29231"
JZcdIdL7I5zsRIsViVDHFMk0,"Shop No.F, 24, SG Barve Marg",Aquarium shop, 098201 90986,19.0638071,72.881332,Avaliable,In-store shopping,https://www.google.com/maps/place/Aqua+Planet/data=!4m7!3m6!1s0x3be7c8be7448c765:0x4d32c5315462c522!8m2!3d19.0638071!4d72.881332!16s%2Fg%2F1xcbn2l6!19sChIJZcdIdL7I5zsRIsViVDHFMk0?authuser=0&hl=en&rclk=1,Aqua Planet,3.9 stars 174 Reviews,3.9,174,"z=16,x=46035,y=29231"
JGRnzn73I5zsRmdwAd0fe40A,"Shop No A/7, 8-9, near SG Barve Marg",Indian grocery store, 095946 06060,19.0614293,72.8837812,Avaliable,In-store shopping,https://www.google.com/maps/place/Asia+Grain+Centre/data=!4m7!3m6!1s0x3be7c8bd9ff31919:0x40e3de477700dc99!8m2!3d19.0614293!4d72.8837812!16s%2Fg%2F1pv07bk69!19sChIJGRnzn73I5zsRmdwAd0fe40A?authuser=0&hl=en&rclk=1,Asia Grain Centre,4.1 stars 433 Reviews,4.1,433,"z=16,x=46036,y=29232"
JwRH8bQ_J5zsR6BFnfoK-dvg,undefined,Cake shopClosed â‹… Opens 9â€¯am Fri, 099677 00859,19.0600196,72.8801302,Avaliable,In-store shopping,https://www.google.com/maps/place/Temptation+House/data=!4m7!3m6!1s0x3be7c90f6dfc11c1:0xf876be827e6711e8!8m2!3d19.0600196!4d72.8801302!16s%2Fg%2F11nnqjk7_x!19sChIJwRH8bQ_J5zsR6BFnfoK-dvg?authuser=0&hl=en&rclk=1,Temptation House,5.0 stars 90 Reviews,5,90,"z=16,x=46035,y=29232"
JA6LJdZbI5zsRX7ePYXzKh_o,"Golden Plaza Co-operative Housing Society, B 20 F, SG Barve Marg",Aquarium shop, 089282 63229,19.0632621,72.8820136,Avaliable,In-store shopping,https://www.google.com/maps/place/Pooja+Trader/data=!4m7!3m6!1s0x3be7c89675c9a203:0xfa87ca7c618fb75f!8m2!3d19.0632621!4d72.8820136!16s%2Fg%2F11p64zws51!19sChIJA6LJdZbI5zsRX7ePYXzKh_o?authuser=0&hl=en&rclk=1,Pooja Trader,3.6 stars 61 Reviews,3.6,61,"z=16,x=46035,y=29231"
Jq6qqur_I5zsRV2Ps2MZAQbM,"Shop No Alh 353/C, Nehru Nagar, S G Brave Marg, Kurla East, Kurla East",Bag shop, 099672 35544,19.059906,72.8773938,Avaliable,NA,https://www.google.com/maps/place/Gmg+Bag+Shop/data=!4m7!3m6!1s0x3be7c8bfbaaaaaab:0xb34140c6d8ec6357!8m2!3d19.059906!4d72.8773938!16s%2Fg%2F1tcvxwvy!19sChIJq6qqur_I5zsRV2Ps2MZAQbM?authuser=0&hl=en&rclk=1,Gmg Bag Shop,4.3 stars 3 Reviews,4.3,3,"z=16,x=46034,y=29232"
JdegCxz7J5zsRs2wnGsgcq3I,SG Barve Marg,Aquarium shop, 075062 10006,19.0638259,72.8816408,Avaliable,In-store shopping,https://www.google.com/maps/place/Pari+Aquarium/data=!4m7!3m6!1s0x3be7c93ec702e875:0x72ab1cc81a276cb3!8m2!3d19.0638259!4d72.8816408!16s%2Fg%2F11j86q25h9!19sChIJdegCxz7J5zsRs2wnGsgcq3I?authuser=0&hl=en&rclk=1,Pari Aquarium,3.9 stars 813 Reviews,3.9,813,"z=16,x=46035,y=29231"
JZ22RCZbI5zsRgvnYGcmiJGo,"Shop No. 60, Savera Chs, SG Barve Marg",Pet store, 088985 57587,19.0634525,72.8812971,Avaliable,In-store shopping,https://www.google.com/maps/place/Galaxy+Aquarium/data=!4m7!3m6!1s0x3be7c89609916d67:0x6a24a2c919d8f982!8m2!3d19.0634525!4d72.8812971!16s%2Fg%2F11pzrywnl7!19sChIJZ22RCZbI5zsRgvnYGcmiJGo?authuser=0&hl=en&rclk=1,Galaxy Aquarium,NA,,,"z=16,x=46035,y=29231"
Jo8LOtbzJ5zsRhBeXHnmQYyk,"Shop no 29, ali bilal siddi sra chs ltd Sg barve marg, station east, near Kurla",Aquarium shop,NA,19.0643221,72.8806154,Avaliable,In-store shopping,https://www.google.com/maps/place/A+to+Z+fish+aquarium+birds+and+pets/data=!4m7!3m6!1s0x3be7c9bcb5cec2a3:0x296390791e971784!8m2!3d19.0643221!4d72.8806154!16s%2Fg%2F11j0s9zz7l!19sChIJo8LOtbzJ5zsRhBeXHnmQYyk?authuser=0&hl=en&rclk=1,A to Z fish aquarium birds and pets,3.0 stars 1 Reviews,3,1,"z=16,x=46035,y=29231"
JW8ezdZbI5zsRtGZjjGpXy-M,"E, Shop No.8,Dion Shelter Chs.,S. G, SG Barve Marg, near Railway station",Cell phone store, 091724 27444,19.0641102,72.8812472,Avaliable,In-store shopping,https://www.google.com/maps/place/Cell+O+City+Mobile+Shop/data=!4m7!3m6!1s0x3be7c89675b3c75b:0xe3cb576a8c6366b4!8m2!3d19.0641102!4d72.8812472!16s%2Fg%2F11bwt5ggng!19sChIJW8ezdZbI5zsRtGZjjGpXy-M?authuser=0&hl=en&rclk=1,Cell O City Mobile Shop,4.7 stars 240 Reviews,4.7,240,"z=16,x=46035,y=29231"
JiZlvmb3I5zsRKPxUER6iodc,"Shop B, 17, 18, SG Barve Marg",Lumber store, 098203 98738,19.061519,72.883541,Avaliable,In-store shopping,https://www.google.com/maps/place/Astavinayak+Plywood/data=!4m7!3m6!1s0x3be7c8bd996f9989:0xd7a1a21e1154fc28!8m2!3d19.061519!4d72.883541!16s%2Fg%2F1tn047y2!19sChIJiZlvmb3I5zsRKPxUER6iodc?authuser=0&hl=en&rclk=1,Astavinayak Plywood,5.0 stars 1 Reviews,5,1,"z=16,x=46036,y=29232"
JAZFzGpbI5zsRZXKR8ktvyYg,"Shop No.34, Building, No.36",Aquarium shop, 075582 00805,19.0635348,72.8815346,Avaliable,In-store shopping,https://www.google.com/maps/place/Dolphin+Aquarium/data=!4m7!3m6!1s0x3be7c8961a739101:0x88c96f4bf2917265!8m2!3d19.0635348!4d72.8815346!16s%2Fg%2F11c3k2_v7_!19sChIJAZFzGpbI5zsRZXKR8ktvyYg?authuser=0&hl=en&rclk=1,Dolphin Aquarium,3.7 stars 36 Reviews,3.7,36,"z=16,x=46035,y=29231"
JVYYiib3I5zsRvPHaurprx8g,"Shop No.C-14, 15, SG Barve Marg",Pharmacy, 022 2524 3352,19.062285,72.8830396,Avaliable,In-store shopping,https://www.google.com/maps/place/Prabhat+Medical+%26+Ayurvedic/data=!4m7!3m6!1s0x3be7c8bd89228655:0xc8c76bbabadaf1bc!8m2!3d19.062285!4d72.8830396!16s%2Fg%2F1pv10648g!19sChIJVYYiib3I5zsRvPHaurprx8g?authuser=0&hl=en&rclk=1,Prabhat Medical & Ayurvedic,3.9 stars 20 Reviews,3.9,20,"z=16,x=46035,y=29231"
Jq6qqur_I5zsRys0HKfo9spA,"Shop No 1, Building No 43",Aquarium shop, 098929 58565,19.0619999,72.882154,Avaliable,In-store shopping,https://www.google.com/maps/place/Maharashtra+Aquarium/data=!4m7!3m6!1s0x3be7c8bfbaaaaaab:0x90b23dfa2907cdca!8m2!3d19.0619999!4d72.882154!16s%2Fg%2F1thg8xxz!19sChIJq6qqur_I5zsRys0HKfo9spA?authuser=0&hl=en&rclk=1,Maharashtra Aquarium,4.6 stars 98 Reviews,4.6,98,"z=16,x=46035,y=29232"
Jrw9iEpbI5zsRHtZBXBwdQV0,"Shop No F/27, opp. Building No 36",Aquarium shop, 098202 62348,19.0636227,72.8812378,Avaliable,In-store shopping,https://www.google.com/maps/place/Aquatica+Aquarium/data=!4m7!3m6!1s0x3be7c89612620faf:0x5d411d1c5c41d61e!8m2!3d19.0636227!4d72.8812378!16s%2Fg%2F11bzt7v04h!19sChIJrw9iEpbI5zsRHtZBXBwdQV0?authuser=0&hl=en&rclk=1,Aquatica Aquarium,3.8 stars 91 Reviews,3.8,91,"z=16,x=46035,y=29231"
JxQe-c5bI5zsRqEbqL_GV43w,"Shop No. 07, Golden Plaza Co-operative Housing Society, No, Nehru Nagar Police Station Rd",Store, 086440 07000,19.0640309,72.8814393,Avaliable,NA,https://www.google.com/maps/place/Pan+Shop/data=!4m7!3m6!1s0x3be7c89673be07c5:0x7ce395f12fea46a8!8m2!3d19.0640309!4d72.8814393!16s%2Fg%2F11pzry4gk1!19sChIJxQe-c5bI5zsRqEbqL_GV43w?authuser=0&hl=en&rclk=1,Pan Shop,NA,,,"z=16,x=46035,y=29231"
JqThO_d7J5zsRLQG0AxlksYM,"H/14, SG Barve Marg",General store, 087794 81615,19.0622878,72.8835317,Avaliable,NA,https://www.google.com/maps/place/Poonam+General+Store/data=!4m7!3m6!1s0x3be7c9defd4e38a9:0x83b1641903b4012d!8m2!3d19.0622878!4d72.8835317!16s%2Fg%2F11t86c8r43!19sChIJqThO_d7J5zsRLQG0AxlksYM?authuser=0&hl=en&rclk=1,Poonam General Store,NA,,,"z=16,x=46036,y=29231"
Jl-Wpc5bI5zsRAAAAsMZaZkc,Shop No 1,Store, 080979 72422,19.0641342,72.8816899,Avaliable,NA,https://www.google.com/maps/place/Asif+Shop/data=!4m7!3m6!1s0x3be7c89673a9e597:0x47665ac6b0000000!8m2!3d19.0641342!4d72.8816899!16s%2Fg%2F11rdx2bg_y!19sChIJl-Wpc5bI5zsRAAAAsMZaZkc?authuser=0&hl=en&rclk=1,Asif Shop,NA,,,"z=16,x=46035,y=29231"
JCS6d9qnJ5zsRICUOdKY9Anc,Shop No 01,Store,091372 92465,19.0780273,72.8699209,Avaliable,NA,https://www.google.com/maps/place/Suresh+Shop/data=!4m7!3m6!1s0x3be7c9a9f69d2e09:0x77023da6740e2520!8m2!3d19.0780273!4d72.8699209!16s%2Fg%2F11sr8x3cpj!19sChIJCS6d9qnJ5zsRICUOdKY9Anc?authuser=0&hl=en&rclk=1,Suresh Shop,NA,,,"z=16,x=46033,y=29228"
JK6xuSmXJ5zsR-r5TEHvT9Ag,Shop No 9,General store,098679 93514,19.0783345,72.8736832,Avaliable,Delivery,https://www.google.com/maps/place/Best+General+Stores/data=!4m7!3m6!1s0x3be7c9654a6eac2b:0x8f4d37b1053befa!8m2!3d19.0783345!4d72.8736832!16s%2Fg%2F11tfn_vth3!19sChIJK6xuSmXJ5zsR-r5TEHvT9Ag?authuser=0&hl=en&rclk=1,Best General Stores,5.0 stars 1 Reviews,5,1,"z=16,x=46034,y=29228"
J9zewYk3J5zsRQIlPc8A2Ny4,"Kalina Donagar, nr. Noori Masjid",Grocery store, 076662 50404,19.0771135,72.8705141,Avaliable,In-store shopping,https://www.google.com/maps/place/Lucky+General+Store/data=!4m7!3m6!1s0x3be7c94d62b037f7:0x2e3736c0734f8940!8m2!3d19.0771135!4d72.8705141!16s%2Fg%2F11hyyztb7m!19sChIJ9zewYk3J5zsRQIlPc8A2Ny4?authuser=0&hl=en&rclk=1,Lucky General Store,5.0 stars 6 Reviews,5,6,"z=16,x=46033,y=29229"
JM5_3AJbJ5zsRxtC-_YWMO4w,"Shop No, 1, Old CST Rd, nr. Chaudhary Super Market",General store,091526 92637,19.0801277,72.863506,Avaliable,NA,https://www.google.com/maps/place/Kismat+General+Stores/data=!4m7!3m6!1s0x3be7c99600f79f33:0x8c3b8c85fdbed0c6!8m2!3d19.0801277!4d72.863506!16s%2Fg%2F11sqj3sp7c!19sChIJM5_3AJbJ5zsRxtC-_YWMO4w?authuser=0&hl=en&rclk=1,Kismat General Stores,NA,,,"z=16,x=46032,y=29228"
Jt3c_8_PI5zsRau_qDxeG0UM,"Shop No. 2, Pramila Chawl, behind St Marys Church",Bakery and Cake Shop, 090763 88098,19.0781781,72.8707135,Avaliable,Delivery,https://www.google.com/maps/place/Brade+Way+Bakery+And+General+Store/data=!4m7!3m6!1s0x3be7c8f3f33f77b7:0x43d186170feaef6a!8m2!3d19.0781781!4d72.8707135!16s%2Fg%2F11t5n48bjz!19sChIJt3c_8_PI5zsRau_qDxeG0UM?authuser=0&hl=en&rclk=1,Brade Way Bakery And General Store,NA,,,"z=16,x=46033,y=29228"
J66yeIODJ5zsR0nA3v_zvSo4,"Canara Bank, Besides",Dry Fruit Store, 091674 14313,19.0776525,72.8642786,Avaliable,In-store shopping,https://www.google.com/maps/place/Nilesh+Dry+Fruits/data=!4m7!3m6!1s0x3be7c9e0209eaceb:0x8e4aeffcbf3770d2!8m2!3d19.0776525!4d72.8642786!16s%2Fg%2F11rql6mq7j!19sChIJ66yeIODJ5zsR0nA3v_zvSo4?authuser=0&hl=en&rclk=1,Nilesh Dry Fruits,4.5 stars 286 Reviews,4.5,286,"z=16,x=46032,y=29229"
JMSDuMXDJ5zsRNPrldgEzfg8,"Shop No 04, Santacruz â€“ Chembur Link Rd, near Girl School",Store,070213 32387,19.0786331,72.8679967,Avaliable,NA,https://www.google.com/maps/place/Nisar+Shaikh+Shop/data=!4m7!3m6!1s0x3be7c97031ee2031:0xf7e330176e5fa34!8m2!3d19.0786331!4d72.8679967!16s%2Fg%2F11sv1y0s1y!19sChIJMSDuMXDJ5zsRNPrldgEzfg8?authuser=0&hl=en&rclk=1,Nisar Shaikh Shop,NA,,,"z=16,x=46033,y=29228"
J08ZRx_bI5zsRfX2kuRt4bIE,"â˜Ž02226650504,ðŸ“±8089687423, 12, Kalina Kurla Rd",Grocery store, 099306 77350,19.0794125,72.8678714,Avaliable,In-store shopping,https://www.google.com/maps/place/NATIONAL+GENERAL+STORE/data=!4m7!3m6!1s0x3be7c8f6c751c6d3:0x816c781bb9a47d7d!8m2!3d19.0794125!4d72.8678714!16s%2Fg%2F11c2kchcy_!19sChIJ08ZRx_bI5zsRfX2kuRt4bIE?authuser=0&hl=en&rclk=1,NATIONAL GENERAL STORE,4.2 stars 6 Reviews,4.2,6,"z=16,x=46033,y=29228"
Jr5QGOPfI5zsRtRDOVXk0WfE,"Big Village, Kalina Kurla Rd",General store, 022 2666 6989,19.0788621,72.8648584,Avaliable,In-store shopping,https://www.google.com/maps/place/Vaibhav+Mangalore+Store/data=!4m7!3m6!1s0x3be7c8f7380694af:0xf159347955ce10b5!8m2!3d19.0788621!4d72.8648584!16s%2Fg%2F11b_02xd3g!19sChIJr5QGOPfI5zsRtRDOVXk0WfE?authuser=0&hl=en&rclk=1,Vaibhav Mangalore Store,3.9 stars 186 Reviews,3.9,186,"z=16,x=46032,y=29228"
JTYC6mEbJ5zsRmeBliD02q88,"Shop No.4, Shree Shiv Nagar Chawl, Kalina Kurla Rd",Grocery store,091376 63001,19.0817581,72.8658183,Avaliable,In-store pick-up,https://www.google.com/maps/place/Gupta+General+Store/data=!4m7!3m6!1s0x3be7c94698ba804d:0xcfab363d8865e099!8m2!3d19.0817581!4d72.8658183!16s%2Fg%2F11sx2m9y_s!19sChIJTYC6mEbJ5zsRmeBliD02q88?authuser=0&hl=en&rclk=1,Gupta General Store,NA,,,"z=16,x=46032,y=29228"
JTyitDB3J5zsRsdyyArZbFIw,"Shop No 05, 16, Air India Rd",Store,083560 70898,19.0777,72.863746,Avaliable,NA,https://www.google.com/maps/place/Sajid+Fruits+Shop/data=!4m7!3m6!1s0x3be7c91d0cad284f:0x8c145bb602b2dcb1!8m2!3d19.0777!4d72.863746!16s%2Fg%2F11v0c8l4_k!19sChIJTyitDB3J5zsRsdyyArZbFIw?authuser=0&hl=en&rclk=1,Sajid Fruits Shop,NA,,,"z=16,x=46032,y=29228"
J9b3pa0bJ5zsRdwkeCzpss_s,Nester Compound Rd,Indian grocery store,NA,19.0791719,72.8683319,Avaliable,Delivery,https://www.google.com/maps/place/Quality+Kirana+Store/data=!4m7!3m6!1s0x3be7c9466be9bdf5:0xfbb36c3a0b1e0977!8m2!3d19.0791719!4d72.8683319!16s%2Fg%2F11sjw5ggqy!19sChIJ9b3pa0bJ5zsRdwkeCzpss_s?authuser=0&hl=en&rclk=1,Quality Kirana Store,5.0 stars 4 Reviews,5,4,"z=16,x=46033,y=29228"
J8WGJNwjJ5zsR8db35QNGhrs,"Shop No 09, Church",Store,085439 03644,19.0780748,72.8688041,Avaliable,NA,https://www.google.com/maps/place/Shivanand+Vegetables+Shop/data=!4m7!3m6!1s0x3be7c908378961f1:0xbb864603e5f7d6f1!8m2!3d19.0780748!4d72.8688041!16s%2Fg%2F11kj44_zl2!19sChIJ8WGJNwjJ5zsR8db35QNGhrs?authuser=0&hl=en&rclk=1,Shivanand Vegetables Shop,NA,,,"z=16,x=46033,y=29228"
JYTgEPu3J5zsRFMW_CLBMQbA,"Shop No 05, Agarwal Building, near by Adani Office",Store,075418 87206,19.0776917,72.8644871,Avaliable,NA,https://www.google.com/maps/place/Shekhar+Vegetables+Shop/data=!4m7!3m6!1s0x3be7c9ed3e043861:0xb0414cb008bfc514!8m2!3d19.0776917!4d72.8644871!16s%2Fg%2F11y3v13s4m!19sChIJYTgEPu3J5zsRFMW_CLBMQbA?authuser=0&hl=en&rclk=1,Shekhar Vegetables Shop,NA,,,"z=16,x=46032,y=29229"
Ju6Y2uz_J5zsRKQ_I-91MXkI,Shop No 07,Store,086928 48515,19.0777073,72.8647054,Avaliable,NA,https://www.google.com/maps/place/Ghosh+Cloth+Shop/data=!4m7!3m6!1s0x3be7c93fbb36a6bb:0x425e4cddfbc80f29!8m2!3d19.0777073!4d72.8647054!16s%2Fg%2F11k46mys5b!19sChIJu6Y2uz_J5zsRKQ_I-91MXkI?authuser=0&hl=en&rclk=1,Ghosh Cloth Shop,NA,,,"z=16,x=46032,y=29228"
JEfZNdZPJ5zsRVuUkM7XRNHs,"Shop No.5, Shastri Nagar Rd",General store,091372 85491,19.0786889,72.871145,Avaliable,NA,https://www.google.com/maps/place/Khaliq+General+Store+Khalikfurkanahmed/data=!4m7!3m6!1s0x3be7c993754df611:0x7b34d1b53324e556!8m2!3d19.0786889!4d72.871145!16s%2Fg%2F11s5k15_r3!19sChIJEfZNdZPJ5zsRVuUkM7XRNHs?authuser=0&hl=en&rclk=1,Khaliq General Store Khalikfurkanahmed,NA,,,"z=16,x=46033,y=29228"
JnXdfLezJ5zsRYnfXVQ8W6b4,"Shop No 18, Radha Krishna Mandir",Grocery store,097688 54435,19.0784073,72.8716746,Avaliable,NA,https://www.google.com/maps/place/Sarvodaya+Kirana+Store/data=!4m7!3m6!1s0x3be7c9ec2d5f779d:0xbee9160f55d77762!8m2!3d19.0784073!4d72.8716746!16s%2Fg%2F11vj4jh9td!19sChIJnXdfLezJ5zsRYnfXVQ8W6b4?authuser=0&hl=en&rclk=1,Sarvodaya Kirana Store,NA,,,"z=16,x=46033,y=29228"
Jh0T4dBDJ5zsR8CAFrvDwCiA,"Shop No.5, Kalina Charch",Store,093268 17161,19.0781382,72.8697875,Avaliable,NA,https://www.google.com/maps/place/Nargis+Vegetable+Shop/data=!4m7!3m6!1s0x3be7c91074f84487:0x200af0f0ae0520f0!8m2!3d19.0781382!4d72.8697875!16s%2Fg%2F11y3719gmy!19sChIJh0T4dBDJ5zsR8CAFrvDwCiA?authuser=0&hl=en&rclk=1,Nargis Vegetable Shop,NA,,,"z=16,x=46033,y=29228"
JK1F4nETJ5zsRybmFScYIBJE,Shop No 04,General store,093265 37326,19.0767589,72.8689074,Avaliable,Delivery,https://www.google.com/maps/place/Mumbai+Store/data=!4m7!3m6!1s0x3be7c9449c78512b:0x910408c64985b9c9!8m2!3d19.0767589!4d72.8689074!16s%2Fg%2F11td0nxzzm!19sChIJK1F4nETJ5zsRybmFScYIBJE?authuser=0&hl=en&rclk=1,Mumbai Store,NA,,,"z=16,x=46033,y=29229"
Jo6uhv_bI5zsR2ZKSvh7Dnd0,"najbunnisa chawl, shasti nagar , kalina, Santacruz ( E ), near nagori hotel",General store, 096647 18287,19.0798556,72.8678752,Avaliable,NA,https://www.google.com/maps/place/S.M+General+Store/data=!4m7!3m6!1s0x3be7c8f6bfa1aba3:0xdd9dc31ebe9292d9!8m2!3d19.0798556!4d72.8678752!16s%2Fg%2F11clyt4t_v!19sChIJo6uhv_bI5zsR2ZKSvh7Dnd0?authuser=0&hl=en&rclk=1,S.M General Store,NA,,,"z=16,x=46033,y=29228"
Js4EDmgXJ5zsR_f_BvvhBly4,"Shop No 01, Kalina Kurla Rd, opp. Air India Colony Gate",Hardware store,098920 94053,19.079617,72.8680759,Avaliable,NA,https://www.google.com/maps/place/Jalamchand+Jain+Shop+Jhalamchand+Jain+S%2F/data=!4m7!3m6!1s0x3be7c9059a0381b3:0x2e9741f8bec1fffd!8m2!3d19.079617!4d72.8680759!16s%2Fg%2F11s90c9n57!19sChIJs4EDmgXJ5zsR_f_BvvhBly4?authuser=0&hl=en&rclk=1,Jalamchand Jain Shop Jhalamchand Jain S/,NA,,,"z=16,x=46033,y=29228"
JoQ8jVWHJ5zsR7DRPV5NPuZ4,"Shop No. 3, Shantacruz, opp. Rizvi Building",Novelty store,083699 25734,19.0782404,72.8705505,Avaliable,NA,https://www.google.com/maps/place/Ayesha+Collection/data=!4m7!3m6!1s0x3be7c96155230fa1:0x9eb94f93574f34ec!8m2!3d19.0782404!4d72.8705505!16s%2Fg%2F11l28th1qy!19sChIJoQ8jVWHJ5zsR7DRPV5NPuZ4?authuser=0&hl=en&rclk=1,Ayesha Collection,NA,,,"z=16,x=46033,y=29228"
JwV_c38_J5zsRnJXbUVNNzXk,shop no 1 dongar,General store,099877 13126,19.0774062,72.8709927,Avaliable,NA,https://www.google.com/maps/place/mohammadiya+kirana+store/data=!4m7!3m6!1s0x3be7c9cfdfdc5fc1:0x79cd4d5351db959c!8m2!3d19.0774062!4d72.8709927!16s%2Fg%2F11krmkr_gz!19sChIJwV_c38_J5zsRnJXbUVNNzXk?authuser=0&hl=en&rclk=1,mohammadiya kirana store,NA,,,"z=16,x=46033,y=29229"
JwZuXUMLJ5zsRwe3voqpnw_g,Prashant Chawl,Dairy store,073510 63103,19.0782035,72.8709501,Avaliable,NA,https://www.google.com/maps/place/Aa+Malik+Shop/data=!4m7!3m6!1s0x3be7c9c250979bc1:0xf8c367aaa2efedc1!8m2!3d19.0782035!4d72.8709501!16s%2Fg%2F11l6kpnsg_!19sChIJwZuXUMLJ5zsRwe3voqpnw_g?authuser=0&hl=en&rclk=1,Aa Malik Shop,NA,,,"z=16,x=46033,y=29228"
JefqwLbPJ5zsRMTGm4O6_PW0,Kalina,Baby store,098380 45067,19.0750291,72.8707018,Avaliable,In-store shopping,https://www.google.com/maps/place/Ali+Store/data=!4m7!3m6!1s0x3be7c9b32db0fa79:0x6d3dbfeee0a63131!8m2!3d19.0750291!4d72.8707018!16s%2Fg%2F11sr8r4q_0!19sChIJefqwLbPJ5zsRMTGm4O6_PW0?authuser=0&hl=en&rclk=1,Ali Store,NA,,,"z=16,x=46033,y=29229"
JQZ0UFvfJ5zsRYGOrGDt8NR8,Shop No 1,General store,086523 18458,19.0786494,72.8730333,Avaliable,Delivery,https://www.google.com/maps/place/Madina+Store/data=!4m7!3m6!1s0x3be7c9f716149d41:0x1f357c3b18ab6360!8m2!3d19.0786494!4d72.8730333!16s%2Fg%2F11khhh96gh!19sChIJQZ0UFvfJ5zsRYGOrGDt8NR8?authuser=0&hl=en&rclk=1,Madina Store,NA,,,"z=16,x=46034,y=29228"
JZZ4xj_PI5zsR8al-aWVGc6U,"Shop No 1, Church, H 47/125, behind Kalina",Pharmacy,NA,19.078454,72.8713586,Avaliable,In-store shopping,https://www.google.com/maps/place/Hari+Om+Medical+General+Store/data=!4m7!3m6!1s0x3be7c8f38f319e65:0xa5734665697ea9f1!8m2!3d19.078454!4d72.8713586!16s%2Fg%2F11sqczd902!19sChIJZZ4xj_PI5zsR8al-aWVGc6U?authuser=0&hl=en&rclk=1,Hari Om Medical General Store,NA,,,"z=16,x=46033,y=29228"
JA8g_xfbI5zsRAAAAMIS45Ag,Shop No 190c Dongar,Pharmacy, 088798 22140,19.0791452,72.8671445,Avaliable,NA,https://www.google.com/maps/place/Bharat+Medical+Store/data=!4m7!3m6!1s0x3be7c8f6c53fc803:0x8e4b88430000000!8m2!3d19.0791452!4d72.8671445!16s%2Fg%2F11s0fl2xlk!19sChIJA8g_xfbI5zsRAAAAMIS45Ag?authuser=0&hl=en&rclk=1,Bharat Medical Store,NA,,,"z=16,x=46033,y=29228"
JNe9PL8HJ5zsRcVQuNu9cxHU,01 Jamnipada Kalina,General store,073039 91557,19.0801413,72.8652761,Avaliable,NA,https://www.google.com/maps/place/Zaid+Store+Shahana+Khatoon/data=!4m7!3m6!1s0x3be7c9c12f4fef35:0x75c45cef362e5471!8m2!3d19.0801413!4d72.8652761!16s%2Fg%2F11rlgty_m_!19sChIJNe9PL8HJ5zsRcVQuNu9cxHU?authuser=0&hl=en&rclk=1,Zaid Store Shahana Khatoon,NA,,,"z=16,x=46032,y=29228"
JZz9S9ILJ5zsRivl6T4mk87c,undefined,General store080973 79059,080973 79059,19.0799034,72.8683391,Avaliable,NA,https://www.google.com/maps/place/Aai+Vajitable+Store/data=!4m7!3m6!1s0x3be7c982f4523f67:0xb7f3a4894f7af98a!8m2!3d19.0799034!4d72.8683391!16s%2Fg%2F11tfp6c6kb!19sChIJZz9S9ILJ5zsRivl6T4mk87c?authuser=0&hl=en&rclk=1,Aai Vajitable Store,NA,,,"z=16,x=46033,y=29228"
JkQiROsTJ5zsRLRm734difW4,"3VG8+QF6 Dargah, Kolavery Vilage, Kalina Jama Masjid Ln",Fruit and vegetable store,084338 15575,19.0769143,72.866128,Avaliable,In-store shopping,https://www.google.com/maps/place/Brijesh+Fruit+Shop/data=!4m7!3m6!1s0x3be7c9c43a910891:0x6e7d6287dfbb192d!8m2!3d19.0769143!4d72.866128!16s%2Fg%2F11rv1g10pb!19sChIJkQiROsTJ5zsRLRm734difW4?authuser=0&hl=en&rclk=1,Brijesh Fruit Shop,5.0 stars 1 Reviews,5,1,"z=16,x=46032,y=29229"
JMda3ZdDJ5zsRqAtYJ-QS4U8,"Shop No 08, Church, Air India Rd",Tobacco shop,090823 84561,19.078899,72.8668659,Avaliable,In-store shopping,https://www.google.com/maps/place/Ashish+Paan+Shop/data=!4m7!3m6!1s0x3be7c9d065b7d631:0x4fe112e427580ba8!8m2!3d19.078899!4d72.8668659!16s%2Fg%2F11sv1_vbxd!19sChIJMda3ZdDJ5zsRqAtYJ-QS4U8?authuser=0&hl=en&rclk=1,Ashish Paan Shop,NA,,,"z=16,x=46033,y=29228"
J_RVDlwfJ5zsRLGSftI3WjS0,"Shop number 9, and 10, Rizvi Residency, Shastri nagar, bhaji market road",Electronics store,NA,19.0784397,72.8701942,Avaliable,In-store shopping,https://www.google.com/maps/place/Electronics+appliances/data=!4m7!3m6!1s0x3be7c907974315fd:0x2d8dd68db49f642c!8m2!3d19.0784397!4d72.8701942!16s%2Fg%2F11t57fm019!19sChIJ_RVDlwfJ5zsRLGSftI3WjS0?authuser=0&hl=en&rclk=1,Electronics appliances,5.0 stars 1 Reviews,5,1,"z=16,x=46033,y=29228"
JeSN5wxvJ5zsRTscmNuqTOfM,"Shop No 02, Rizvi Residency, behind Kalina Church",Fruit and vegetable store,082917 31726,19.078082,72.8702947,Avaliable,NA,https://www.google.com/maps/place/Ubaidullah+Vegetables+Shop/data=!4m7!3m6!1s0x3be7c91bc3792379:0xf33993ea3626c74e!8m2!3d19.078082!4d72.8702947!16s%2Fg%2F11ld6nsjqp!19sChIJeSN5wxvJ5zsRTscmNuqTOfM?authuser=0&hl=en&rclk=1,Ubaidullah Vegetables Shop,NA,,,"z=16,x=46033,y=29228"
J4ZAgx43I5zsRD1MsBA1TAHI,"Shop No.4,Omer Manjil, Kalina-Kurla Road, Santacruz",Stationery store, 022 2666 6880,19.0800249,72.8683144,Avaliable,In-store shopping,https://www.google.com/maps/place/Shree+Ganesh+Store/data=!4m7!3m6!1s0x3be7c88dc72090e1:0x7200530d042c530f!8m2!3d19.0800249!4d72.8683144!16s%2Fg%2F1tslh5r9!19sChIJ4ZAgx43I5zsRD1MsBA1TAHI?authuser=0&hl=en&rclk=1,Shree Ganesh Store,NA,,,"z=16,x=46033,y=29228"
J_ximU1HJ5zsR1K_wwPZfQFU,"Shop No.7, Air Indian Colony Rd",General store,080979 97016,19.0796374,72.8677579,Avaliable,NA,https://www.google.com/maps/place/Ram+Paan+Bhandar/data=!4m7!3m6!1s0x3be7c95153a618ff:0x55405ff6c0f0afd4!8m2!3d19.0796374!4d72.8677579!16s%2Fg%2F11l2m7zgfw!19sChIJ_ximU1HJ5zsR1K_wwPZfQFU?authuser=0&hl=en&rclk=1,Ram Paan Bhandar,NA,,,"z=16,x=46033,y=29228"
JPbMux_bI5zsRPtDRi0kYHGg,"Shop #3, Belim House, Kalina Kurla Rd",Grocery store, 091676 84353,19.0793427,72.8676574,Avaliable,In-store shopping,https://www.google.com/maps/place/Kalina+Stores/data=!4m7!3m6!1s0x3be7c8f6c72eb33d:0x681c18498bd1d03e!8m2!3d19.0793427!4d72.8676574!16s%2Fg%2F11dz_xs553!19sChIJPbMux_bI5zsRPtDRi0kYHGg?authuser=0&hl=en&rclk=1,Kalina Stores,3.8 stars 21 Reviews,3.8,21,"z=16,x=46033,y=29228"
JgysxfPPI5zsRwKduFnfvOMw,400029,Grocery store,NA,19.078592,72.8726567,Avaliable,In-store shopping,https://www.google.com/maps/place/Mohammadi+Store+Kalina/data=!4m7!3m6!1s0x3be7c8f37c312b83:0xcc38ef77166ea7c0!8m2!3d19.078592!4d72.8726567!16s%2Fg%2F11g9m41vgr!19sChIJgysxfPPI5zsRwKduFnfvOMw?authuser=0&hl=en&rclk=1,Mohammadi Store Kalina,5.0 stars 5 Reviews,5,5,"z=16,x=46034,y=29228"
JTXrrnafJ5zsRK3D10x5ep9g,2 Kunchekurve Rod,General store, 090760 05021,19.0777051,72.8708076,Avaliable,NA,https://www.google.com/maps/place/Mannat+General+Store/data=!4m7!3m6!1s0x3be7c9a79deb7a4d:0xd8a75e1ed3f5702b!8m2!3d19.0777051!4d72.8708076!16s%2Fg%2F11k4v1dbp7!19sChIJTXrrnafJ5zsRK3D10x5ep9g?authuser=0&hl=en&rclk=1,Mannat General Store,NA,,,"z=16,x=46033,y=29228"
JQ_jHSOrJ5zsR-vXf5873DPM,"Shop No 5, Kalina Charch, near Hunuman Mandir",Store, 081080 80521,19.0780134,72.8697024,Avaliable,Delivery,https://www.google.com/maps/place/Vandana+Novelty+Shop/data=!4m7!3m6!1s0x3be7c9ea48c7f843:0xf30cf7cee7dff5fa!8m2!3d19.0780134!4d72.8697024!16s%2Fg%2F11s5gv9l7b!19sChIJQ_jHSOrJ5zsR-vXf5873DPM?authuser=0&hl=en&rclk=1,Vandana Novelty Shop,NA,,,"z=16,x=46033,y=29228"
J8VWsKDDJ5zsRgY6L54JvAUc,"Shop No 1 Chawl No 3, Mishra Chawl",Pharmacy,NA,19.0786885,72.8722157,Avaliable,Delivery,https://www.google.com/maps/place/Bandana+Medical+And+General+Stores/data=!4m7!3m6!1s0x3be7c93028ac55f1:0x47016f82e78b8e81!8m2!3d19.0786885!4d72.8722157!16s%2Fg%2F11tjh4sqc_!19sChIJ8VWsKDDJ5zsRgY6L54JvAUc?authuser=0&hl=en&rclk=1,Bandana Medical And General Stores,NA,,,"z=16,x=46033,y=29228"
JB4fFB6fJ5zsRAZKDFQfgjHQ,Shastri Nagar Rd,Cosmetics store,099301 56533,19.0782255,72.87123,Avaliable,NA,https://www.google.com/maps/place/Zainab+Cosmetics+Shop/data=!4m7!3m6!1s0x3be7c9a707c58707:0x748ce00715839201!8m2!3d19.0782255!4d72.87123!16s%2Fg%2F11l1q3fkgq!19sChIJB4fFB6fJ5zsRAZKDFQfgjHQ?authuser=0&hl=en&rclk=1,Zainab Cosmetics Shop,NA,,,"z=16,x=46033,y=29228"
JqVWLRHrJ5zsRkKM5QUYtps4,"1, Near, Air India Rd",Store,080970 40118,19.0797893,72.8679639,Avaliable,NA,https://www.google.com/maps/place/Sajid+M.+Hanif+Chohwan+Tea+Shop/data=!4m7!3m6!1s0x3be7c97a448b55a9:0xcea62d464139a390!8m2!3d19.0797893!4d72.8679639!16s%2Fg%2F11t7zhg4t8!19sChIJqVWLRHrJ5zsRkKM5QUYtps4?authuser=0&hl=en&rclk=1,Sajid M. Hanif Chohwan Tea Shop,NA,,,"z=16,x=46033,y=29228"
JyS7pOHTJ5zsRMkRMkiO0JNQ,"No-30, Mishra Compound, Shastri Nagar Rd, behind Kalina Church",Chicken & Mutton Shop,099203 21851,19.0786163,72.8730208,Avaliable,NA,https://www.google.com/maps/place/Tabrez+Chicken+Shop/data=!4m7!3m6!1s0x3be7c97438e92ec9:0xd424b423924c4432!8m2!3d19.0786163!4d72.8730208!16s%2Fg%2F11sn_db7bt!19sChIJyS7pOHTJ5zsRMkRMkiO0JNQ?authuser=0&hl=en&rclk=1,Tabrez Chicken Shop,NA,,,"z=16,x=46034,y=29228"
JMW_XvvbI5zsROsUMixjquoQ,"15, Nester Compound Rd",Dairy store, 098207 88016,19.0794293,72.8680705,Avaliable,NA,https://www.google.com/maps/place/Dubey+Dairy+Farm/data=!4m7!3m6!1s0x3be7c8f6bed76f31:0x84baea188b0cc53a!8m2!3d19.0794293!4d72.8680705!16s%2Fg%2F11c71980rv!19sChIJMW_XvvbI5zsROsUMixjquoQ?authuser=0&hl=en&rclk=1,Dubey Dairy Farm,4.4 stars 8 Reviews,4.4,8,"z=16,x=46033,y=29228"
JbdQFwfbI5zsRhBIpB-66Qgo,"Shop No 134, opp. Lucky Hotel",Fabric store, 098708 35257,19.079561,72.8675911,Avaliable,NA,https://www.google.com/maps/place/Smack+Engg+Works/data=!4m7!3m6!1s0x3be7c8f6c105d46d:0xa42baee07291284!8m2!3d19.079561!4d72.8675911!16s%2Fg%2F11gc0bnp0h!19sChIJbdQFwfbI5zsRhBIpB-66Qgo?authuser=0&hl=en&rclk=1,Smack Engg Works,NA,,,"z=16,x=46033,y=29228"
JkY_-MybJ5zsRCnNbfxjUd7M,Shop No 1 Kalina Dongar,Dairy store,098336 63092,19.0771439,72.8702877,Avaliable,NA,https://www.google.com/maps/place/Mallu+Bhaii+Chicken+Shop/data=!4m7!3m6!1s0x3be7c92633fe8f91:0xb377d4187f5b730a!8m2!3d19.0771439!4d72.8702877!16s%2Fg%2F11rr6597d4!19sChIJkY_-MybJ5zsRCnNbfxjUd7M?authuser=0&hl=en&rclk=1,Mallu Bhaii Chicken Shop,NA,,,"z=16,x=46033,y=29229"
J2X8F_VHJ5zsRk0dI2iUihEo,"Next badriya masjid, Air India Rd",Mobile phone repair shop, 073792 14747,19.0792935,72.8673867,Avaliable,NA,https://www.google.com/maps/place/mobile+repair+shop+CELL+POINT/data=!4m7!3m6!1s0x3be7c951fd057fd9:0x4a842225da484793!8m2!3d19.0792935!4d72.8673867!16s%2Fg%2F11h0t6qbth!19sChIJ2X8F_VHJ5zsRk0dI2iUihEo?authuser=0&hl=en&rclk=1,mobile repair shop CELL POINT,4.1 stars 43 Reviews,4.1,43,"z=16,x=46033,y=29228"
JSRU81fbI5zsRAAAAMOhO9ng,Shop No 7,Grocery store, 084199 60067,19.0783343,72.8664371,Avaliable,In-store shopping,https://www.google.com/maps/place/Jalal+PAN+Shop/data=!4m7!3m6!1s0x3be7c8f6d53c1549:0x78f64ee830000000!8m2!3d19.0783343!4d72.8664371!16s%2Fg%2F11rdx22q8m!19sChIJSRU81fbI5zsRAAAAMOhO9ng?authuser=0&hl=en&rclk=1,Jalal PAN Shop,5.0 stars 3 Reviews,5,3,"z=16,x=46032,y=29228"
JX_FCf3nJ5zsRfcjiYUxDk_M,"Sachin bhaskar jadhav Building no 4,Room no 102,kole kalyan police quarters, Hans Bhugra Marg, near Forensic laboratory",Gift shop,NA,19.0767908,72.8577514,Avaliable,NA,https://www.google.com/maps/place/santacruz+east/data=!4m7!3m6!1s0x3be7c9797f42f15f:0xf393434c61e2c87d!8m2!3d19.0767908!4d72.8577514!16s%2Fg%2F11q4js2k87!19sChIJX_FCf3nJ5zsRfcjiYUxDk_M?authuser=0&hl=en&rclk=1,santacruz east,NA,,,"z=16,x=46031,y=29229"
JHQoxLQLJ5zsRmtuxjzQWcwU,"Shop No.3, Church Rd",Store,084549 55371,19.078181,72.8683062,Avaliable,NA,https://www.google.com/maps/place/Nandkishor+Paani+Puri/data=!4m7!3m6!1s0x3be7c9022d310a1d:0x57316348fb1db9a!8m2!3d19.078181!4d72.8683062!16s%2Fg%2F11v68x6rgw!19sChIJHQoxLQLJ5zsRmtuxjzQWcwU?authuser=0&hl=en&rclk=1,Nandkishor Paani Puri,NA,,,"z=16,x=46033,y=29228"
JAS6cJH_J5zsRPUnn0TDFEng,"Shop No, 6, Shastri Nagar Rd, near Ali Khan Hall",Grocery store,097021 31679,19.0786626,72.8725502,Avaliable,NA,https://www.google.com/maps/place/Irfan+Chicken+Shop/data=!4m7!3m6!1s0x3be7c97f249c2e01:0x7812c530d1e7493d!8m2!3d19.0786626!4d72.8725502!16s%2Fg%2F11t77tv1pq!19sChIJAS6cJH_J5zsRPUnn0TDFEng?authuser=0&hl=en&rclk=1,Irfan Chicken Shop,NA,,,"z=16,x=46034,y=29228"
J53Ahj_PI5zsRRrbsXo6wU74,"Hari Store, Shop No 2, Shastri Nagar Near Hari Store Kalina Santacruz",General store, 099203 62847,19.0782302,72.871289,Avaliable,Delivery,https://www.google.com/maps/place/Sai+General+Store/data=!4m7!3m6!1s0x3be7c8f38f2170e7:0xbe53b08e5eecb646!8m2!3d19.0782302!4d72.871289!16s%2Fg%2F11rqslsm8j!19sChIJ53Ahj_PI5zsRRrbsXo6wU74?authuser=0&hl=en&rclk=1,Sai General Store,NA,,,"z=16,x=46033,y=29228"
JbY2rW5TJ5zsRYMl8jhHPlFk,"Shop no A/2, Rizvi utopia building, Shastri Nagar Rd",Cake shop,NA,19.0780466,72.8698748,Avaliable,NA,https://www.google.com/maps/place/Mumbai+celebration+tha+cake+shop/data=!4m7!3m6!1s0x3be7c9945bab8d6d:0x5994cf118e7cc960!8m2!3d19.0780466!4d72.8698748!16s%2Fg%2F11y31t3js2!19sChIJbY2rW5TJ5zsRYMl8jhHPlFk?authuser=0&hl=en&rclk=1,Mumbai celebration tha cake shop,5.0 stars 1 Reviews,5,1,"z=16,x=46033,y=29228"
JN-FJoGDJ5zsR_6xCen_SeIM,Shop No 08,Dairy store,093269 62773,19.0781949,72.870503,Avaliable,NA,https://www.google.com/maps/place/Ripusudan+Dairy/data=!4m7!3m6!1s0x3be7c960a049e137:0x8378d27f7a42acff!8m2!3d19.0781949!4d72.870503!16s%2Fg%2F11t0622k4t!19sChIJN-FJoGDJ5zsR_6xCen_SeIM?authuser=0&hl=en&rclk=1,Ripusudan Dairy,NA,,,"z=16,x=46033,y=29228"
JF1LCkarJ5zsR1SItY_QivRA,"Charch, Shop No. 10 Building Ni. A5 Rizvi Building, behind Kalina",Pharmacy,090045 78644,19.0781205,72.8705383,Avaliable,Delivery,https://www.google.com/maps/place/Garib+Nawaz+Medical+And+General+Store/data=!4m7!3m6!1s0x3be7c9aa91c25217:0x10bd22f4632d22d5!8m2!3d19.0781205!4d72.8705383!16s%2Fg%2F11swtch35h!19sChIJF1LCkarJ5zsR1SItY_QivRA?authuser=0&hl=en&rclk=1,Garib Nawaz Medical And General Store,3.0 stars 1 Reviews,3,1,"z=16,x=46033,y=29228"
Jnw0MNOXI5zsRz41awH3wYsE,"179, Majit Gali, Jama Majid Road",Indian grocery store, 076666 42428,19.0763847,72.8664719,Avaliable,In-store shopping,https://www.google.com/maps/place/Ammi%27s+Mart/data=!4m7!3m6!1s0x3be7c8e5340c0d9f:0xc162f07dc05a8dcf!8m2!3d19.0763847!4d72.8664719!16s%2Fg%2F11bwh9_r7m!19sChIJnw0MNOXI5zsRz41awH3wYsE?authuser=0&hl=en&rclk=1,Ammi's Mart,4.4 stars 65 Reviews,4.4,65,"z=16,x=46032,y=29229"
J2wBevfbI5zsRY4ow_Ql1ILk,"3VH9+X8P, Kalina Kurla Rd, opp. Air India Colony",Clothing store, 098199 53552,19.0799659,72.8683251,Avaliable,In-store shopping,https://www.google.com/maps/place/Pooja+Collection/data=!4m7!3m6!1s0x3be7c8f6bd5e00db:0xb9207509fd308a63!8m2!3d19.0799659!4d72.8683251!16s%2Fg%2F1vq9krm1!19sChIJ2wBevfbI5zsRY4ow_Ql1ILk?authuser=0&hl=en&rclk=1,Pooja Collection,3.0 stars 2 Reviews,3,2,"z=16,x=46033,y=29228"
JAQAAAP_I5zsRciMqtX-uT7c,"179, Kalina Jama Masjid Ln",Stationery store, 098190 63342,19.0775818,72.8652398,Avaliable,In-store shopping,https://www.google.com/maps/place/Reliable+Stores/data=!4m7!3m6!1s0x3be7c8ff00000001:0xb74fae7fb52a2372!8m2!3d19.0775818!4d72.8652398!16s%2Fg%2F1wf209jq!19sChIJAQAAAP_I5zsRciMqtX-uT7c?authuser=0&hl=en&rclk=1,Reliable Stores,4.1 stars 169 Reviews,4.1,169,"z=16,x=46032,y=29229"
J_-O6effI5zsRKfUdiMyw-jk,"140, CST Rd",General store, 086522 93661,19.0806974,72.863939,Avaliable,In-store shopping,https://www.google.com/maps/place/Nitin+General+Stores/data=!4m7!3m6!1s0x3be7c8f779bae3ff:0x39fab0cc881df529!8m2!3d19.0806974!4d72.863939!16s%2Fg%2F11dxkflhp0!19sChIJ_-O6effI5zsRKfUdiMyw-jk?authuser=0&hl=en&rclk=1,Nitin General Stores,4.2 stars 9 Reviews,4.2,9,"z=16,x=46032,y=29228"
JYT7eqRrJ5zsRcJBTovTkdI0,"4, Road",Car dealer,093412 88560,19.0797917,72.8666048,Avaliable,NA,https://www.google.com/maps/place/Mantu+Rice+Shop/data=!4m7!3m6!1s0x3be7c91aa9de3e61:0x8d74e4f4a2539070!8m2!3d19.0797917!4d72.8666048!16s%2Fg%2F11vlgdggkz!19sChIJYT7eqRrJ5zsRcJBTovTkdI0?authuser=0&hl=en&rclk=1,Mantu Rice Shop,NA,,,"z=16,x=46032,y=29228"
J5SS0linJ5zsRTOSk1BMSN20,"Shop No 01, St Anthony Rd",General store, 098920 95026,19.0806921,72.8565763,Avaliable,In-store pick-up,https://www.google.com/maps/place/Bipin+Provision+Stores/data=!4m7!3m6!1s0x3be7c92996b424e5:0x6d371213d4a4e44c!8m2!3d19.0806921!4d72.8565763!16s%2Fg%2F11flbfwh51!19sChIJ5SS0linJ5zsRTOSk1BMSN20?authuser=0&hl=en&rclk=1,Bipin Provision Stores,5.0 stars 1 Reviews,5,1,"z=16,x=46031,y=29228"
JUZdH9A7J5zsR3kSdTfFlfLM,A B,Paint store,NA,19.0798556,72.8678752,Avaliable,NA,https://www.google.com/maps/place/Asian+Paints/data=!4m7!3m6!1s0x3be7c90ef4479751:0xb37c65f14d9d44de!8m2!3d19.0798556!4d72.8678752!16s%2Fg%2F11tj4ys6_3!19sChIJUZdH9A7J5zsR3kSdTfFlfLM?authuser=0&hl=en&rclk=1,Asian Paints,NA,,,"z=16,x=46033,y=29228"
JNVdXICPJ5zsRddpQRXgnC_w,"Shop Number 3, Nester Compound Rd, behind Lucky Hotel",Watch store,084529 55135,19.0794969,72.8680105,Avaliable,In-store shopping,https://www.google.com/maps/place/laxmi+Watch+Centre/data=!4m7!3m6!1s0x3be7c92320575735:0xfc0b27784550da75!8m2!3d19.0794969!4d72.8680105!16s%2Fg%2F11t6yzcb94!19sChIJNVdXICPJ5zsRddpQRXgnC_w?authuser=0&hl=en&rclk=1,laxmi Watch Centre,NA,,,"z=16,x=46033,y=29228"
J7ekpPyrJ5zsRtHOW1X3tWE8,"Shop No.1, Dongar, Near, Noorie Masjid Rd, behind Kalina Church",Chicken & Mutton Shop,093722 16881,19.0769988,72.8704588,Avaliable,NA,https://www.google.com/maps/place/Nuruddin+Chicken+Shop/data=!4m7!3m6!1s0x3be7c92a3f29e9ed:0x4f58ed7dd59673b4!8m2!3d19.0769988!4d72.8704588!16s%2Fg%2F11vqnz5h83!19sChIJ7ekpPyrJ5zsRtHOW1X3tWE8?authuser=0&hl=en&rclk=1,Nuruddin Chicken Shop,NA,,,"z=16,x=46033,y=29229"
JKZOmpvTI5zsRJj5ssyaKz_c,"3VHF+PMR, Panama compund shashtri nagar",Book store,NA,19.0793649,72.8741454,Avaliable,In-store shopping,https://www.google.com/maps/place/SUNDARAM+BOOK+SHOP/data=!4m7!3m6!1s0x3be7c8f4a6a69329:0xf7cf8a26b36c3e26!8m2!3d19.0793649!4d72.8741454!16s%2Fg%2F11f08ksmlj!19sChIJKZOmpvTI5zsRJj5ssyaKz_c?authuser=0&hl=en&rclk=1,SUNDARAM BOOK SHOP,3.4 stars 18 Reviews,3.4,18,"z=16,x=46034,y=29228"
Jx5IyaQDJ5zsRmBLLSgif3AQ,3VH8+PR4,Chicken & Mutton Shop,NA,19.0792559,72.8670808,Avaliable,NA,https://www.google.com/maps/place/Pizza+for+ever/data=!4m7!3m6!1s0x3be7c900693292c7:0x4dc9f084acb1298!8m2!3d19.0792559!4d72.8670808!16s%2Fg%2F11vykf0sdv!19sChIJx5IyaQDJ5zsRmBLLSgif3AQ?authuser=0&hl=en&rclk=1,Pizza for ever,NA,,,"z=16,x=46033,y=29228"
JhzCPsfDI5zsR7nrRxQfKC_k,"Air India Road, 14-F, Roy Nagar, Shop No.7, Kalina, Santacruz East",Kitchen supply store, 098195 30620,19.080772,72.868783,Avaliable,In-store shopping,https://www.google.com/maps/place/Pravin+Gruh+Vastu+Bhandar/data=!4m7!3m6!1s0x3be7c8f0b18f3087:0xf90bca07c5d17aee!8m2!3d19.080772!4d72.868783!16s%2Fg%2F1ydddkh2w!19sChIJhzCPsfDI5zsR7nrRxQfKC_k?authuser=0&hl=en&rclk=1,Pravin Gruh Vastu Bhandar,NA,,,"z=16,x=46033,y=29228"
JDyEI0t_J5zsR3WdWy_pSIoc,"shop no 3,0Sharma punjabi chawl, Shastri Nagar Rd, 400029, near Radhakrishna Temple",Dessert shop,091209 15761,19.078498,72.8718672,Avaliable,NA,https://www.google.com/maps/place/Kaka+Desert/data=!4m7!3m6!1s0x3be7c9dfd208210f:0x872252facb5667dd!8m2!3d19.078498!4d72.8718672!16s%2Fg%2F11vwf3llv2!19sChIJDyEI0t_J5zsR3WdWy_pSIoc?authuser=0&hl=en&rclk=1,Kaka Desert,NA,,,"z=16,x=46033,y=29228"
JSyJ1rvDI5zsR5rNJKIvW0DQ,"Shop No.4, Roy Nagar, near canara Bank",Kitchen supply store, 098207 21602,19.0776452,72.8640029,Avaliable,In-store shopping,https://www.google.com/maps/place/M.A+Shah+Kitchen+Ware+Shop/data=!4m7!3m6!1s0x3be7c8f0ae75224b:0x34d0d68b2849b3e6!8m2!3d19.0776452!4d72.8640029!16s%2Fg%2F1ydddkg_9!19sChIJSyJ1rvDI5zsR5rNJKIvW0DQ?authuser=0&hl=en&rclk=1,M.A Shah Kitchen Ware Shop,4.6 stars 52 Reviews,4.6,52,"z=16,x=46032,y=29229"
Jr4WmxfbI5zsR18xz3C_dn_0,"Police Station, Shop No.1, Lovely Home, Opp.Kalina, Kalina Kurla Rd",Cell phone store, 022 2666 1666,19.079142,72.8671446,Avaliable,In-store shopping,https://www.google.com/maps/place/Khazana+Plus/data=!4m7!3m6!1s0x3be7c8f6c5a685af:0xfd9fdd2fdc73ccd7!8m2!3d19.079142!4d72.8671446!16s%2Fg%2F11d_7r181z!19sChIJr4WmxfbI5zsR18xz3C_dn_0?authuser=0&hl=en&rclk=1,Khazana Plus,"4.9 stars 5,378 Reviews",4.9,,"z=16,x=46033,y=29228"
J014Sv_bI5zsRwF517H35fJY,"Shop No. 3 Nester Compound, Kalina Kurla Rd, behind Lucky Hotel",Stationery store, 098197 19944,19.0796065,72.867971,Avaliable,Delivery,https://www.google.com/maps/place/Laxmi+Xerox+Centre/data=!4m7!3m6!1s0x3be7c8f6bf125ed3:0x967cf97dec755ec0!8m2!3d19.0796065!4d72.867971!16s%2Fg%2F11t6s9nlfn!19sChIJ014Sv_bI5zsRwF517H35fJY?authuser=0&hl=en&rclk=1,Laxmi Xerox Centre,NA,,,"z=16,x=46033,y=29228"
J1YCAEHbJ5zsR0JpMQYNDzfg,undefined,Cell phone storeClosed â‹… Opens 11:30â€¯am Fri, 096647 71220,19.0796584,72.8681711,Avaliable,In-store shopping,https://www.google.com/maps/place/Bhagyoday+mobile+shop/data=!4m7!3m6!1s0x3be7c976108080d5:0xf8cd4383414c9ad0!8m2!3d19.0796584!4d72.8681711!16s%2Fg%2F11h6508b7_!19sChIJ1YCAEHbJ5zsR0JpMQYNDzfg?authuser=0&hl=en&rclk=1,Bhagyoday mobile shop,4.2 stars 11 Reviews,4.2,11,"z=16,x=46033,y=29228"
J4ZAgx43I5zsRf9HaVLm5xm0,"180, Kalina Kurla Rd, opposite union bank Air india",Children's clothing store, 086919 07005,19.0774473,72.8634037,Avaliable,In-store shopping,https://www.google.com/maps/place/Deepak+Stores/data=!4m7!3m6!1s0x3be7c88dc72090e1:0x6dc6b9b954dad17f!8m2!3d19.0774473!4d72.8634037!16s%2Fg%2F1tknhy14!19sChIJ4ZAgx43I5zsRf9HaVLm5xm0?authuser=0&hl=en&rclk=1,Deepak Stores,5.0 stars 1 Reviews,5,1,"z=16,x=46032,y=29229"
J2_w5v_bI5zsRpNANEMPpYlc,"Shop No. 4, Nelter House, Nester Compound, Near Lucky Hotel, Kalina Kurla Road, Santacruz East, opposite Air India Quarters",Mattress store, 098673 38045,19.0794746,72.8678744,Avaliable,In-store shopping,https://www.google.com/maps/place/Variety+Furnishing/data=!4m7!3m6!1s0x3be7c8f6bf39fcdb:0x5762e9c3100dd0a4!8m2!3d19.0794746!4d72.8678744!16s%2Fg%2F11c3k9dpxt!19sChIJ2_w5v_bI5zsRpNANEMPpYlc?authuser=0&hl=en&rclk=1,Variety Furnishing,5.0 stars 11 Reviews,5,11,"z=16,x=46033,y=29228"
JywxQtvDI5zsRDI-wgkRAgPM,"3VH7+2V2, opp. Old Kalina Market",General store,NA,19.077519,72.8646457,Avaliable,In-store shopping,https://www.google.com/maps/place/Kalina+Supari+Stores/data=!4m7!3m6!1s0x3be7c8f0b6500ccb:0xf380404482b08f0c!8m2!3d19.077519!4d72.8646457!16s%2Fg%2F1yddd2_d5!19sChIJywxQtvDI5zsRDI-wgkRAgPM?authuser=0&hl=en&rclk=1,Kalina Supari Stores,4.4 stars 44 Reviews,4.4,44,"z=16,x=46032,y=29229"
JayF8yfDI5zsRTBlUOv3OsoA,"Miranda House, Kalina Kurla Rd",Liquor Shop,NA,19.0777894,72.86501,Avaliable,In-store pick-up,https://www.google.com/maps/place/Chetan+Wines/data=!4m7!3m6!1s0x3be7c8f0c97c216b:0x80b2cefd3a54194c!8m2!3d19.0777894!4d72.86501!16s%2Fg%2F1ydddkj2c!19sChIJayF8yfDI5zsRTBlUOv3OsoA?authuser=0&hl=en&rclk=1,Chetan Wines,3.8 stars 99 Reviews,3.8,99,"z=16,x=46032,y=29228"
J64PR1PDI5zsRDAgtqBIVbwY,"Shop No 5, Rathod Mansion, Kalina Kurla Rd, opp. Kumar Plaza, near Pushparaj Hotel",Furniture store, 093210 70478,19.0781711,72.8660781,Avaliable,In-store shopping,https://www.google.com/maps/place/Nakoda+Furniture+-+Best+Furniture+Shop/data=!4m7!3m6!1s0x3be7c8f0d4d183eb:0x66f1512a82d080c!8m2!3d19.0781711!4d72.8660781!16s%2Fg%2F1q67b47pz!19sChIJ64PR1PDI5zsRDAgtqBIVbwY?authuser=0&hl=en&rclk=1,Nakoda Furniture - Best Furniture Shop,4.6 stars 5 Reviews,4.6,5,"z=16,x=46032,y=29228"
JAQAAAP_I5zsRhb97C3DSU2A,"3VH9+G4G, Tesi D'souza Compound, Kalina Church Road, Santacruz East, Near St Mary High School, Santacruz East",Furniture store, 022 2666 3297,19.0787148,72.8677787,Avaliable,In-store shopping,https://www.google.com/maps/place/Dhamian+Overseas/data=!4m7!3m6!1s0x3be7c8ff00000001:0x6053d2700b7bbf85!8m2!3d19.0787148!4d72.8677787!16s%2Fg%2F1tg5sjgj!19sChIJAQAAAP_I5zsRhb97C3DSU2A?authuser=0&hl=en&rclk=1,Dhamian Overseas,4.3 stars 12 Reviews,4.3,12,"z=16,x=46033,y=29228"
Jx-BlvfbI5zsRELULBmNBXYk,"Shop No.18, Air India Colony, Kurla Road",Clothing store, 093210 26602,19.0795921,72.8680051,Avaliable,In-store shopping,https://www.google.com/maps/place/ishaq+collection/data=!4m7!3m6!1s0x3be7c8f6bd65e0c7:0x895d4163060bb510!8m2!3d19.0795921!4d72.8680051!16s%2Fg%2F1ydddklhz!19sChIJx-BlvfbI5zsRELULBmNBXYk?authuser=0&hl=en&rclk=1,ishaq collection,4.2 stars 5 Reviews,4.2,5,"z=16,x=46033,y=29228"
Jlf9rsa3J5zsRR3z8vq-KVGk,"Indira nagar, Kalina Kurla Rd, near air india colony, opp. Lucky hotel",Meat products store,NA,19.0796056,72.8679697,Avaliable,In-store shopping,https://www.google.com/maps/place/King+Mutton+Shop/data=!4m7!3m6!1s0x3be7c9adb16bff95:0x69548aafbefc7c47!8m2!3d19.0796056!4d72.8679697!16s%2Fg%2F11hv0wyv3_!19sChIJlf9rsa3J5zsRR3z8vq-KVGk?authuser=0&hl=en&rclk=1,King Mutton Shop,4.2 stars 5 Reviews,4.2,5,"z=16,x=46033,y=29228"
J01-Ob_3J5zsRlWrN_Vkv-os,"Shop No.96 Azad Nagar Air India Colony, Kalina Kurla Rd",Auto parts store,080973 44370,19.0793127,72.8675889,Avaliable,Delivery,https://www.google.com/maps/place/Sahu+Auto+Parts+%26+Services/data=!4m7!3m6!1s0x3be7c9fd6f8e5fd3:0x8bfa2f59fdcd6a95!8m2!3d19.0793127!4d72.8675889!16s%2Fg%2F11q9m9gz9r!19sChIJ01-Ob_3J5zsRlWrN_Vkv-os?authuser=0&hl=en&rclk=1,Sahu Auto Parts & Services,NA,,,"z=16,x=46033,y=29228"
Jt8YXzvbI5zsRBPY8ZRRkYQo,"Shop No 01, A Rose Villa, 58, Church Rd",Pharmacy, 095944 18697,19.0786885,72.8670842,Avaliable,Delivery,https://www.google.com/maps/place/Healthplus+Medical+%26+General+Store/data=!4m7!3m6!1s0x3be7c8f6ce17c6b7:0xa616414653cf604!8m2!3d19.0786885!4d72.8670842!16s%2Fg%2F11khmv6mz7!19sChIJt8YXzvbI5zsRBPY8ZRRkYQo?authuser=0&hl=en&rclk=1,Healthplus Medical & General Store,NA,,,"z=16,x=46033,y=29228"
Jx3HUwPbI5zsRwqJqR3MRoR8,"Shop No.01, Azad Nagar, Opp.Lucky Hotel, Kalina Kurla Road, Santacruz East, next to air India Colony",Cell phone store,NA,19.0795692,72.8674754,Avaliable,Delivery,https://www.google.com/maps/place/Unique+Mobile+Point/data=!4m7!3m6!1s0x3be7c8f6c0d471c7:0x1fa11173476aa2c2!8m2!3d19.0795692!4d72.8674754!16s%2Fg%2F11f17lj81f!19sChIJx3HUwPbI5zsRwqJqR3MRoR8?authuser=0&hl=en&rclk=1,Unique Mobile Point,4.7 stars 3 Reviews,4.7,3,"z=16,x=46033,y=29228"
J2UCNw_bI5zsRSElRO39MzGE,"5, Belim House, Kalina Kurla Road, Santacurz East, opp. Air India Colony",Appliance store, 022 2666 8406,19.0794276,72.8672561,Avaliable,In-store shopping,https://www.google.com/maps/place/Paradise+Steel+Emporium/data=!4m7!3m6!1s0x3be7c8f6c38d40d9:0x61cc4c7f3b514948!8m2!3d19.0794276!4d72.8672561!16s%2Fg%2F11d_8bzy9s!19sChIJ2UCNw_bI5zsRSElRO39MzGE?authuser=0&hl=en&rclk=1,Paradise Steel Emporium,5.0 stars 4 Reviews,5,4,"z=16,x=46033,y=29228"
JYcGl2vbI5zsRfmDB7ZqVajU,"5, Kalina Kurla Rd",Jewelry store,NA,19.0789904,72.8670328,Avaliable,In-store shopping,https://www.google.com/maps/place/Khazana+Collection/data=!4m7!3m6!1s0x3be7c8f6daa5c161:0x356a959aedc1607e!8m2!3d19.0789904!4d72.8670328!16s%2Fg%2F11j007t1bx!19sChIJYcGl2vbI5zsRfmDB7ZqVajU?authuser=0&hl=en&rclk=1,Khazana Collection,5.0 stars 5 Reviews,5,5,"z=16,x=46033,y=29228"
JKbBJtvDI5zsRa1Fo3K_qrCQ,"Sony Center, Shop No 3 & 4 179 Kulsumbai Ismail, Santacruz â€“ Chembur Link Rd, opp. Reliance Receiving Sub Station Masjid, near Kalina",Store,NA,19.0775925,72.8649253,Avaliable,In-store shopping,https://www.google.com/maps/place/Sony+Center+-+S.L+Electronics/data=!4m7!3m6!1s0x3be7c8f0b649b029:0x24aceaafdc68516b!8m2!3d19.0775925!4d72.8649253!16s%2Fg%2F1q67prpb7!19sChIJKbBJtvDI5zsRa1Fo3K_qrCQ?authuser=0&hl=en&rclk=1,Sony Center - S.L Electronics,4.2 stars 239 Reviews,4.2,239,"z=16,x=46032,y=29229"
JCxu5v_bI5zsRontdXrRPt1A,"29, Air India Rd",Chicken & Mutton Shop, 098696 31345,19.0797595,72.8679307,Avaliable,In-store shopping,https://www.google.com/maps/place/A-1+chicken+Shop/data=!4m7!3m6!1s0x3be7c8f6bfb91b0b:0x50b74fb45e5d7ba2!8m2!3d19.0797595!4d72.8679307!16s%2Fg%2F1ydddkk__!19sChIJCxu5v_bI5zsRontdXrRPt1A?authuser=0&hl=en&rclk=1,A-1 chicken Shop,4.0 stars 5 Reviews,4,5,"z=16,x=46033,y=29228"
JH8OzSBLJ5zsRrX7XU7FucTU,"Shop No 1, near Puspak Hotel",Coffee shop, 097034 79577,19.0790599,72.8665531,Avaliable,Dine-in,https://www.google.com/maps/place/Anapurna+Tiffen+Center/data=!4m7!3m6!1s0x3be7c91248b3c31f:0x35716eb153d77ead!8m2!3d19.0790599!4d72.8665531!16s%2Fg%2F11trq8jnf6!19sChIJH8OzSBLJ5zsRrX7XU7FucTU?authuser=0&hl=en&rclk=1,Anapurna Tiffen Center,NA,,,"z=16,x=46032,y=29228"
JQU5cmse35zsRJCUKgnhP5EU,next to Sahyog Well care Hospital,Cake shop, 097699 36038,19.0787287,72.8649771,Avaliable,In-store shopping,https://www.google.com/maps/place/Cakes+%26+Crumbs+%7C+Cake+Shop+In+Kalina+%7C+Best+Cake+Shop+In+Santacruz+East/data=!4m7!3m6!1s0x3be7b7c79a5c4e41:0x45e44f78820a2524!8m2!3d19.0787287!4d72.8649771!16s%2Fg%2F11lgsbyk1l!19sChIJQU5cmse35zsRJCUKgnhP5EU?authuser=0&hl=en&rclk=1,Cakes & Crumbs | Cake Shop In Kalina | Best Cake Shop In Santacruz East,4.9 stars 114 Reviews,4.9,114,"z=16,x=46032,y=29228"
J4ZAgx43I5zsR50uAtGxXx7w,"Faiz Co-Op Hsg Soc, Shop No.8/B,Lovely Home, Santacruz â€“ Chembur Link Rd",Drug store, 093248 42332,19.0789894,72.8670332,Avaliable,In-store shopping,https://www.google.com/maps/place/Elite+Medical+%26+General+Stores/data=!4m7!3m6!1s0x3be7c88dc72090e1:0xbcc7576cb4804be7!8m2!3d19.0789894!4d72.8670332!16s%2Fg%2F1tctq3w5!19sChIJ4ZAgx43I5zsR50uAtGxXx7w?authuser=0&hl=en&rclk=1,Elite Medical & General Stores,4.0 stars 6 Reviews,4,6,"z=16,x=46033,y=29228"
Jq8H8HVLJ5zsRgKeZpV8vnKc,"7, Lovely Home, Kalina Kurla Rd",Mattress store, 081087 56013,19.0791624,72.8670101,Avaliable,In-store shopping,https://www.google.com/maps/place/Sleepwell/data=!4m7!3m6!1s0x3be7c9521dfcc1ab:0xa79c2f5fa599a780!8m2!3d19.0791624!4d72.8670101!16s%2Fg%2F11nffl_70z!19sChIJq8H8HVLJ5zsRgKeZpV8vnKc?authuser=0&hl=en&rclk=1,Sleepwell,NA,,,"z=16,x=46033,y=29228"
JVxs0hYzJ5zsRQiws-evVsUE,Santacruz esat kalina market shop 2 kulsum mahala,Wallpaper store, 087679 43130,19.0785585,72.8654133,Avaliable,In-store shopping,https://www.google.com/maps/place/Hayat+interiors/data=!4m7!3m6!1s0x3be7c98c85341b57:0x41b1d5ebf92c2c42!8m2!3d19.0785585!4d72.8654133!16s%2Fg%2F11j4_mr0pc!19sChIJVxs0hYzJ5zsRQiws-evVsUE?authuser=0&hl=en&rclk=1,Hayat interiors,4.9 stars 17 Reviews,4.9,17,"z=16,x=46032,y=29228"
JySys-fnI5zsRxDTOJzWfE_s,"9, Sahu House, 140, Old CST Rd",Two Wheeler Repair Shop, 099671 24313,19.0779878,72.8628155,Avaliable,NA,https://www.google.com/maps/place/Satyanam+Cycle+And+Motorcycle+Shop/data=!4m7!3m6!1s0x3be7c8f9f9ac2cc9:0xfb139f3527ce34c4!8m2!3d19.0779878!4d72.8628155!16s%2Fg%2F11c31nvq7s!19sChIJySys-fnI5zsRxDTOJzWfE_s?authuser=0&hl=en&rclk=1,Satyanam Cycle And Motorcycle Shop,4.0 stars 13 Reviews,4,13,"z=16,x=46032,y=29228"
JnWAGtvDI5zsRdVQtt9t5qcs,"3VH9+P3J, Kalina Kurla Rd",Watch store, 096642 31806,19.0793426,72.8676528,Avaliable,NA,https://www.google.com/maps/place/Sainath+Watch+House/data=!4m7!3m6!1s0x3be7c8f0b606609d:0xcba979dbb72d5475!8m2!3d19.0793426!4d72.8676528!16s%2Fg%2F1ydddkh9q!19sChIJnWAGtvDI5zsRdVQtt9t5qcs?authuser=0&hl=en&rclk=1,Sainath Watch House,5.0 stars 1 Reviews,5,1,"z=16,x=46033,y=29228"
JEYTDl_bI5zsRXWUptoXj6N0,"Shop No. 122, opp. Lucky Hotel",Auto parts store, 097021 19600,19.0799516,72.868317,Avaliable,NA,https://www.google.com/maps/place/Reliable+Auto+Parts/data=!4m7!3m6!1s0x3be7c8f697c38411:0xdde8e385b629655d!8m2!3d19.0799516!4d72.868317!16s%2Fg%2F11bw3_2vsh!19sChIJEYTDl_bI5zsRXWUptoXj6N0?authuser=0&hl=en&rclk=1,Reliable Auto Parts,5.0 stars 3 Reviews,5,3,"z=16,x=46033,y=29228"
JfQnQA5zJ5zsRrIxmXV0w6Tc,"510/A3, Rizvi Residency, behind kalina church",Make-up artist, 081694 85226,19.0783238,72.8700106,Avaliable,NA,https://www.google.com/maps/place/DiDi+International/data=!4m7!3m6!1s0x3be7c99c03d0097d:0x37e9305d5d668cac!8m2!3d19.0783238!4d72.8700106!16s%2Fg%2F11l139fyqb!19sChIJfQnQA5zJ5zsRrIxmXV0w6Tc?authuser=0&hl=en&rclk=1,DiDi International,4.8 stars 4 Reviews,4.8,4,"z=16,x=46033,y=29228"
Jt0ptxPbI5zsRA4PPR5jr_SE,"Shop No A, Near, Air India Rd",Auto parts store, 095172 48440,19.0793743,72.8672769,Avaliable,Delivery,https://www.google.com/maps/place/Indian+Garage/data=!4m7!3m6!1s0x3be7c8f6c46d4ab7:0x21fdeb9847cf8303!8m2!3d19.0793743!4d72.8672769!16s%2Fg%2F11s51vlvhz!19sChIJt0ptxPbI5zsRA4PPR5jr_SE?authuser=0&hl=en&rclk=1,Indian Garage,5.0 stars 2 Reviews,5,2,"z=16,x=46033,y=29228"
JSb6sLQnJ5zsR3v9dowgrbrg,"Sterling Apart, Opp to municipal school ,Kalina, Kolivery Rd",Baking supply store,NA,19.0770984,72.866832,Avaliable,In-store shopping,https://www.google.com/maps/place/Ali%27s+Cake+Decor/data=!4m7!3m6!1s0x3be7c9092dacbe49:0xb86e2b08a35dffde!8m2!3d19.0770984!4d72.866832!16s%2Fg%2F11pf0cdlwf!19sChIJSb6sLQnJ5zsR3v9dowgrbrg?authuser=0&hl=en&rclk=1,Ali's Cake Decor,4.9 stars 17 Reviews,4.9,17,"z=16,x=46033,y=29229"
JFe7ruv_I5zsRAAAA0HGnM2k,"Shop No. 03, Farheen Apartments, Pandit Jawaharlal Nehru Rd, opposite SVC Co-operative Bank Limited",Party store, 084519 40053,19.0807714,72.8536221,Avaliable,In-store shopping,https://www.google.com/maps/place/Chheda+Store/data=!4m7!3m6!1s0x3be7c8ffbaebee15:0x6933a771d0000000!8m2!3d19.0807714!4d72.8536221!16s%2Fg%2F11s0fl3nw2!19sChIJFe7ruv_I5zsRAAAA0HGnM2k?authuser=0&hl=en&rclk=1,Chheda Store,5.0 stars 1 Reviews,5,1,"z=16,x=46030,y=29228"
JSTA09_PI5zsRa-so6HBxga4,Shop No 12,Jewelry store, 088790 84229,19.0782171,72.8700976,Avaliable,In-store shopping,https://www.google.com/maps/place/Mary+Gold/data=!4m7!3m6!1s0x3be7c8f3f7343049:0xae817170e828eb6b!8m2!3d19.0782171!4d72.8700976!16s%2Fg%2F11sqczl974!19sChIJSTA09_PI5zsRa-so6HBxga4?authuser=0&hl=en&rclk=1,Mary Gold,5.0 stars 2 Reviews,5,2,"z=16,x=46033,y=29228"
Jab3P0PbI5zsRcb8h8m9ZYUU,"64, St Mary Chowk, Kalina Kurla Road, Santacruz East, Mumbai - 400029",Refrigerator store, 098202 44937,19.0789052,72.8667064,Avaliable,Delivery,https://www.google.com/maps/place/Vinayak+Refrigeration+Sales/data=!4m7!3m6!1s0x3be7c8f6d0cfbd69:0x4561596ff221bf71!8m2!3d19.0789052!4d72.8667064!16s%2Fg%2F1yddd2znn!19sChIJab3P0PbI5zsRcb8h8m9ZYUU?authuser=0&hl=en&rclk=1,Vinayak Refrigeration Sales,4.3 stars 6 Reviews,4.3,6,"z=16,x=46032,y=29228"
Jt0lxx__I5zsRKrf9X9c-fC4,"Shop No. 3, Aminfatru Chawl, Market, Pandit Jawaharlal Nehru Rd",Stationery store, 097692 40819,19.0815128,72.8552774,Avaliable,In-store shopping,https://www.google.com/maps/place/Suresh+Stores/data=!4m7!3m6!1s0x3be7c8ffc77149b7:0x2e7c3ed75ffdb72a!8m2!3d19.0815128!4d72.8552774!16s%2Fg%2F1v4k4_1v!19sChIJt0lxx__I5zsRKrf9X9c-fC4?authuser=0&hl=en&rclk=1,Suresh Stores,5.0 stars 88 Reviews,5,88,"z=16,x=46030,y=29228"
JQ3zW7O3J5zsRFkDmNiVbqpE,"Indira nagar, near by air india staff, opp. lucky restaurant",Air conditioning store, 079772 37317,19.0794702,72.8678539,Avaliable,In-store shopping,https://www.google.com/maps/place/Sana+Aircon+enterprises/data=!4m7!3m6!1s0x3be7c9edecd67c43:0x91aa5b2536e64016!8m2!3d19.0794702!4d72.8678539!16s%2Fg%2F11ldj13lg5!19sChIJQ3zW7O3J5zsRFkDmNiVbqpE?authuser=0&hl=en&rclk=1,Sana Aircon enterprises,5.0 stars 12 Reviews,5,12,"z=16,x=46033,y=29228"
JScfoIcXJ5zsRjhoMMJT87j0,"3VJ3+GR9, Pandit Jawaharlal Nehru Rd",Shopping mall, 098195 75436,19.0812768,72.8546208,Avaliable,In-store shopping,https://www.google.com/maps/place/Haria+Value+Store/data=!4m7!3m6!1s0x3be7c9c521e8c749:0x3deefc94300c1a8e!8m2!3d19.0812768!4d72.8546208!16s%2Fg%2F11gmg1_v0x!19sChIJScfoIcXJ5zsRjhoMMJT87j0?authuser=0&hl=en&rclk=1,Haria Value Store,4.3 stars 4 Reviews,4.3,4,"z=16,x=46030,y=29228"
JtYOFv_bI5zsRTaj3uaY29HM,"15, Air India Rd",Tire shop, 090040 89178,19.0794615,72.867843,Avaliable,Delivery,https://www.google.com/maps/place/Bharat+Tyre+Service/data=!4m7!3m6!1s0x3be7c8f6bf8583b5:0x73f436a6b9f7a84d!8m2!3d19.0794615!4d72.867843!16s%2Fg%2F1ydddkkz3!19sChIJtYOFv_bI5zsRTaj3uaY29HM?authuser=0&hl=en&rclk=1,Bharat Tyre Service,3.0 stars 2 Reviews,3,2,"z=16,x=46033,y=29228"
J10_O6fDI5zsREPcYGtD4KPg,"Meena Apartments, Shop No G-2,Ground Floor, Kalina Village",Hobby store, 077380 74740,19.0799929,72.8646155,Avaliable,In-store shopping,https://www.google.com/maps/place/dbjets.com/data=!4m7!3m6!1s0x3be7c8f0e9ce4fd7:0xf828f8d01a18f710!8m2!3d19.0799929!4d72.8646155!16s%2Fg%2F11fxspyv7q!19sChIJ10_O6fDI5zsREPcYGtD4KPg?authuser=0&hl=en&rclk=1,dbjets.com,4.6 stars 27 Reviews,4.6,27,"z=16,x=46032,y=29228"
J7URASvfI5zsR8lQuWSbRTTg,"House No.36, Yasin Manjil, Kalina Village Rd",Electronics store, 099678 72549,19.0783178,72.8648337,Avaliable,Delivery,https://www.google.com/maps/place/K.D.Electronics/data=!4m7!3m6!1s0x3be7c8f74a4044ed:0x384dd126592e54f2!8m2!3d19.0783178!4d72.8648337!16s%2Fg%2F11g8kr7lsk!19sChIJ7URASvfI5zsR8lQuWSbRTTg?authuser=0&hl=en&rclk=1,K.D.Electronics,4.6 stars 60 Reviews,4.6,60,"z=16,x=46032,y=29228"
JrT5wUf7I5zsR9i4CvHsGVJA,"Shop No.2, Datta Mandir Road, Opp Datta Mandir, Vakola Pipe Line, Santacruz East",Clothing store, 099678 53126,19.0834626,72.8526451,Avaliable,In-store shopping,https://www.google.com/maps/place/Shiv+Shakti+Collection/data=!4m7!3m6!1s0x3be7c8fe51703ead:0x9054067bbc022ef6!8m2!3d19.0834626!4d72.8526451!16s%2Fg%2F11cn9ykdlc!19sChIJrT5wUf7I5zsR9i4CvHsGVJA?authuser=0&hl=en&rclk=1,Shiv Shakti Collection,5.0 stars 1 Reviews,5,1,"z=16,x=46030,y=29227"
JrfiTdf_I5zsRug3aVlTaK1k,"Shop No.1, Ground Floor, Manthan Plaza, Bmc market, Pandit Jawaharlal Nehru Rd",Supermarket,NA,19.0816734,72.8546823,Avaliable,In-store shopping,https://www.google.com/maps/place/SHIVAM+SUPER+MART/data=!4m7!3m6!1s0x3be7c8ff7593f8ad:0x592bda5456da0dba!8m2!3d19.0816734!4d72.8546823!16s%2Fg%2F11c2pm6vvr!19sChIJrfiTdf_I5zsRug3aVlTaK1k?authuser=0&hl=en&rclk=1,SHIVAM SUPER MART,"4.1 stars 1,128 Reviews",4.1,,"z=16,x=46030,y=29228"
Jx_1vVLLJ5zsRPgiiAq26iCo,"Shop Number 3, 126 C, Pandit Jawaharlal Nehru Rd, opposite Manthan Plaza",Clothing store,NA,19.0813989,72.8548985,Avaliable,In-store shopping,https://www.google.com/maps/place/Sheth+Clothing/data=!4m7!3m6!1s0x3be7c9b2546ffdc7:0x2a88baad02a2083e!8m2!3d19.0813989!4d72.8548985!16s%2Fg%2F11rtf50kkb!19sChIJx_1vVLLJ5zsRPgiiAq26iCo?authuser=0&hl=en&rclk=1,Sheth Clothing,4.7 stars 78 Reviews,4.7,78,"z=16,x=46030,y=29228"
JBcBp0KjJ5zsRL4Lu13-A9v8,Shop No 02,General store, 079001 71695,19.0782294,72.8712911,Avaliable,NA,https://www.google.com/maps/place/Gautam+Shop/data=!4m7!3m6!1s0x3be7c9a8d069c005:0xfff6807fd7ee822f!8m2!3d19.0782294!4d72.8712911!16s%2Fg%2F11jz9m376s!19sChIJBcBp0KjJ5zsRL4Lu13-A9v8?authuser=0&hl=en&rclk=1,Gautam Shop,NA,,,"z=16,x=46033,y=29228"
JK8TDhezJ5zsR1lRN2LMdrao,Santacruz,Store, 098675 56866,19.0777177,72.8656197,Avaliable,NA,https://www.google.com/maps/place/Asgar+Shop/data=!4m7!3m6!1s0x3be7c9ec85c3c42b:0xaaad1db3d84d54d6!8m2!3d19.0777177!4d72.8656197!16s%2Fg%2F11s96s869s!19sChIJK8TDhezJ5zsR1lRN2LMdrao?authuser=0&hl=en&rclk=1,Asgar Shop,NA,,,"z=16,x=46032,y=29228"
JtRtF8fPI5zsRbLrJeM3q6Ps,"Block-A5, Rizvi Residency",General store,NA,19.0782262,72.8703511,Temporarily closed,NA,https://www.google.com/maps/place/Jagdamba+General+Stores/data=!4m7!3m6!1s0x3be7c8f3f1451bb5:0xfbe8eacd78c9ba6c!8m2!3d19.0782262!4d72.8703511!16s%2Fg%2F11rtv64v31!19sChIJtRtF8fPI5zsRbLrJeM3q6Ps?authuser=0&hl=en&rclk=1,Jagdamba General Stores,NA,,,"z=16,x=46033,y=29228"
JxQ4rjDrJ5zsRgqm-7B9dAAk,"Shop No 02, Rizwi Utopia Building",Store, 081087 58728,19.0782697,72.8700655,Avaliable,NA,https://www.google.com/maps/place/Sonali+Vegetables+Shop/data=!4m7!3m6!1s0x3be7c93a8c2b0ec5:0x9005d1fecbea982!8m2!3d19.0782697!4d72.8700655!16s%2Fg%2F11ssdqtpgv!19sChIJxQ4rjDrJ5zsRgqm-7B9dAAk?authuser=0&hl=en&rclk=1,Sonali Vegetables Shop,NA,,,"z=16,x=46033,y=29228"
J18jAMPfI5zsR8stR611tO0I,"3VH8+F4V, Kalina Village Rd",General store, 099201 55416,19.0787322,72.8652977,Avaliable,NA,https://www.google.com/maps/place/Paras+General+Stores/data=!4m7!3m6!1s0x3be7c8f730c0c8d7:0x423b6d5deb51cbf2!8m2!3d19.0787322!4d72.8652977!16s%2Fg%2F11swg0cdx6!19sChIJ18jAMPfI5zsR8stR611tO0I?authuser=0&hl=en&rclk=1,Paras General Stores,NA,,,"z=16,x=46032,y=29228"
J36W7m5XJ5zsRIazfkZ4_4FU,Shop No.3,General store, 072338 17129,19.0799742,72.8683163,Avaliable,NA,https://www.google.com/maps/place/JaneAlam+General+Store/data=!4m7!3m6!1s0x3be7c9959bbba5df:0x55e03f9e91dfac21!8m2!3d19.0799742!4d72.8683163!16s%2Fg%2F11s2k2_r_2!19sChIJ36W7m5XJ5zsRIazfkZ4_4FU?authuser=0&hl=en&rclk=1,JaneAlam General Store,NA,,,"z=16,x=46033,y=29228"
J5yx98QfJ5zsR5Z-FJmRM8F0,"34/35, Popat, Deepchand Shopping Centre, Santacruz Railway Station Rd, near Santacruz Station, near Silver Plaza",Shopping mall,NA,19.0810374,72.8407441,Avaliable,In-store shopping,https://www.google.com/maps/place/Popat+Bapa+And+Sons+Shopping+Center/data=!4m7!3m6!1s0x3be7c907f17d2ce7:0x5df04c6426859fe5!8m2!3d19.0810374!4d72.8407441!16s%2Fg%2F1pv1ntmxg!19sChIJ5yx98QfJ5zsR5Z-FJmRM8F0?authuser=0&hl=en&rclk=1,Popat Bapa And Sons Shopping Center,3.9 stars 128 Reviews,3.9,128,"z=16,x=46028,y=29228"
JRb18cJPI5zsRUW08Y8yHhGk,"3V9H+84X, New Mill Rd",Shopping mall,NA,19.0683718,72.8778604,Avaliable,In-store shopping,https://www.google.com/maps/place/Sayba+Palace+Shopping+Centre/data=!4m7!3m6!1s0x3be7c893707cbd45:0x698487cc633c6d51!8m2!3d19.0683718!4d72.8778604!16s%2Fg%2F11ckw28_2q!19sChIJRb18cJPI5zsRUW08Y8yHhGk?authuser=0&hl=en&rclk=1,Sayba Palace Shopping Centre,3.9 stars 806 Reviews,3.9,806,"z=16,x=46035,y=29230"
JxSjskovJ5zsR8qXwHK7LqHs,"Stall No 36, A K Marg, Banda East, East Exit, near Railway Station",Store,084259 13214,19.0553699,72.84203,Avaliable,NA,https://www.google.com/maps/place/Ibrahim+Shaikh+Shop/data=!4m7!3m6!1s0x3be7c98b92ec28c5:0x7ba8cbae1cf0a5f2!8m2!3d19.0553699!4d72.84203!16s%2Fg%2F11vrjk_thd!19sChIJxSjskovJ5zsR8qXwHK7LqHs?authuser=0&hl=en&rclk=1,Ibrahim Shaikh Shop,NA,,,"z=16,x=46028,y=29233"
JO2XxxI7J5zsRJR117sICrBQ,"Shop No 22 Ak Marg Road, Kolsu Gali",Perfume store,088286 61438,19.0551987,72.8420929,Avaliable,In-store shopping,https://www.google.com/maps/place/Sameer+Shop/data=!4m7!3m6!1s0x3be7c98ec4f1653b:0x14ac02c2ee751d25!8m2!3d19.0551987!4d72.8420929!16s%2Fg%2F11sh7cwq9t!19sChIJO2XxxI7J5zsRJR117sICrBQ?authuser=0&hl=en&rclk=1,Sameer Shop,NA,,,"z=16,x=46028,y=29233"
Jk9A64kLJ5zsRUipTkiu3Z7o,"A K Marg, Ghas Bazar Rd, near Gate No 18",Store,074086 89116,19.05612,72.8414902,Avaliable,NA,https://www.google.com/maps/place/Adeel+Shop/data=!4m7!3m6!1s0x3be7c942e23ad093:0xba67b72b92532a52!8m2!3d19.05612!4d72.8414902!16s%2Fg%2F11sv5_fjkc!19sChIJk9A64kLJ5zsRUipTkiu3Z7o?authuser=0&hl=en&rclk=1,Adeel Shop,NA,,,"z=16,x=46028,y=29233"
J2xk9SJTJ5zsRZ0kirEzB29U,"Building No.4, A Wing, Shop no-3, Om Sai Kripa CHS, Anant Kanekar Marg, near Bandra Family Court, opposite MSEB Office",Pharmacy, 077100 98266,19.0549955,72.8453053,Avaliable,In-store shopping,https://www.google.com/maps/place/Apollo+Pharmacy+AK+Marg+Bandra+East+Branch/data=!4m7!3m6!1s0x3be7c994483d19db:0xd5dbc14cac224967!8m2!3d19.0549955!4d72.8453053!16s%2Fg%2F11n_1sm4nq!19sChIJ2xk9SJTJ5zsRZ0kirEzB29U?authuser=0&hl=en&rclk=1,Apollo Pharmacy AK Marg Bandra East Branch,3.0 stars 1 Reviews,3,1,"z=16,x=46029,y=29233"
JG_h1dSTJ5zsRFSPeZByPJ_A,"Shop Number.737, A.K.Marg, Station Rd",Cell phone store, 079775 88301,19.0551841,72.8432595,Avaliable,In-store shopping,https://www.google.com/maps/place/Mobi+World/data=!4m7!3m6!1s0x3be7c9247575f81b:0xf0278f1c64de2315!8m2!3d19.0551841!4d72.8432595!16s%2Fg%2F11hchrl0f3!19sChIJG_h1dSTJ5zsRFSPeZByPJ_A?authuser=0&hl=en&rclk=1,Mobi World,4.0 stars 2 Reviews,4,2,"z=16,x=46028,y=29233"
JOcDvifHH5zsROvaMBb1c0Bg,Raheja Vihar Circular Rd,General store, 081084 49946,19.1168,72.8948809,Avaliable,In-store shopping,https://www.google.com/maps/place/Cheap+%26+Best/data=!4m7!3m6!1s0x3be7c7f189efc039:0x18d05cbd058cf63a!8m2!3d19.1168!4d72.8948809!16s%2Fg%2F1tflqgwv!19sChIJOcDvifHH5zsROvaMBb1c0Bg?authuser=0&hl=en&rclk=1,Cheap & Best,3.9 stars 212 Reviews,3.9,212,"z=16,x=46038,y=29221"
J__9jBBLJ5zsR4taQfdWWiRo,"Plot No 172, Bajaj Niwas, Linking Rd",Western apparel store, 070459 59705,19.068703,72.8337567,Avaliable,In-store shopping,https://www.google.com/maps/place/AND/data=!4m7!3m6!1s0x3be7c9120463ffff:0x1a8996d57d90d6e2!8m2!3d19.068703!4d72.8337567!16s%2Fg%2F1wzt0vh4!19sChIJ__9jBBLJ5zsR4taQfdWWiRo?authuser=0&hl=en&rclk=1,AND,4.3 stars 306 Reviews,4.3,306,"z=16,x=46026,y=29230"
JxbuBQKTJ5zsRQbCJ8ZW0LMo,"Bandra Railway Station, Stall No 34, A K Marg, Railway, Station Rd",Store,086928 90337,19.0550137,72.8418083,Avaliable,NA,https://www.google.com/maps/place/Tabassum+Pan+Shop/data=!4m7!3m6!1s0x3be7c9a44081bbc5:0xca2cb495f189b041!8m2!3d19.0550137!4d72.8418083!16s%2Fg%2F11vpcmgw9s!19sChIJxbuBQKTJ5zsRQbCJ8ZW0LMo?authuser=0&hl=en&rclk=1,Tabassum Pan Shop,NA,,,"z=16,x=46028,y=29233"
JtYthIxvJ5zsRdJbRMnJn_4s,"16, Saibaba Road",General store, 022 2647 9659,19.0694343,72.8444569,Avaliable,"""Nice shop..... reasonable price general store with good quality""",https://www.google.com/maps/place/Sharma+Stores/data=!4m7!3m6!1s0x3be7c91b23618bb5:0x8bff677232d19674!8m2!3d19.0694343!4d72.8444569!16s%2Fg%2F1pp2xbgtg!19sChIJtYthIxvJ5zsRdJbRMnJn_4s?authuser=0&hl=en&rclk=1,Sharma Stores,3.4 stars 5 Reviews,3.4,5,"z=16,x=46028,y=29230"
JpzBMsfDF5zsReSTa5MF1kUs,Bharat Nagar Rd,General store,NA,19.0304939,72.9052118,Avaliable,Delivery,https://www.google.com/maps/place/Kirana+stores/data=!4m7!3m6!1s0x3be7c5f0b14c30a7:0x4b9175c1e4da2479!8m2!3d19.0304939!4d72.9052118!16s%2Fg%2F1ptw09d3b!19sChIJpzBMsfDF5zsReSTa5MF1kUs?authuser=0&hl=en&rclk=1,Kirana stores,4.2 stars 10 Reviews,4.2,10,"z=16,x=46039,y=29238"
JEyQLCbPJ5zsRo2oIrF60ohA,"3, Zer Terrace, Pandit Jawaharlal Nehru Rd, opposite Post Office",Supermarket, 086555 06600,19.080552,72.842585,Avaliable,In-store shopping,https://www.google.com/maps/place/Premji+Lalji+And+Co./data=!4m7!3m6!1s0x3be7c9b3090b2413:0x10a2b45eac086aa3!8m2!3d19.080552!4d72.842585!16s%2Fg%2F1tcy2r_y!19sChIJEyQLCbPJ5zsRo2oIrF60ohA?authuser=0&hl=en&rclk=1,Premji Lalji And Co.,4.2 stars 299 Reviews,4.2,299,"z=16,x=46028,y=29228"
JRVD5AqnJ5zsRdrK5Grihdg0,"Shop No 67, Arvind Shopping Center, No 1, Prabhat Colony Rd",Supermarket, 022 2611 2757,19.0828625,72.8425647,Avaliable,In-store shopping,https://www.google.com/maps/place/Supermarket/data=!4m7!3m6!1s0x3be7c9a902f95045:0xd76a1b81ab9b276!8m2!3d19.0828625!4d72.8425647!16s%2Fg%2F11c3k55g78!19sChIJRVD5AqnJ5zsRdrK5Grihdg0?authuser=0&hl=en&rclk=1,Supermarket,3.8 stars 17 Reviews,3.8,17,"z=16,x=46028,y=29228"
J_fZo6hjJ5zsRHpFed7ofDUw,"Building No.35, Shop, Suryodaya Co-Op Housing Society, No.12/13, Rd Number 2",Supermarket, 093238 56565,19.0607508,72.8441478,Avaliable,In-store shopping,https://www.google.com/maps/place/Maharashtra+Stationery/data=!4m7!3m6!1s0x3be7c918ea68f6fd:0x4c0d1fba775e911e!8m2!3d19.0607508!4d72.8441478!16s%2Fg%2F11dxbd5zh1!19sChIJ_fZo6hjJ5zsRHpFed7ofDUw?authuser=0&hl=en&rclk=1,Maharashtra Stationery,4.0 stars 158 Reviews,4,158,"z=16,x=46028,y=29232"
JTbXifCzH5zsRDfKDcDRzDnw,"I-2/2 BEST Staff Colony, Anil Dattatray Ubhare Rd, near Post Office",Grocery store,NA,19.0843572,72.918022,Avaliable,In-store shopping,https://www.google.com/maps/place/S+K+SUPER+MARKET/data=!4m7!3m6!1s0x3be7c72c7ce2b54d:0x7c0e73347083f20d!8m2!3d19.0843572!4d72.918022!16s%2Fg%2F11my0vdjfh!19sChIJTbXifCzH5zsRDfKDcDRzDnw?authuser=0&hl=en&rclk=1,S K SUPER MARKET,5.0 stars 14 Reviews,5,14,"z=16,x=46042,y=29227"
Jy-LjnXTJ5zsRTNKQKrvaDSI,"Shop 9, Dr Ambedkar Rd, opposite Post Office",Grocery store, 098206 44325,19.0744778,72.8260484,Avaliable,NA,https://www.google.com/maps/place/Tripal+M+Enterprises/data=!4m7!3m6!1s0x3be7c9749de3e2cb:0x220ddabb2a90d24c!8m2!3d19.0744778!4d72.8260484!16s%2Fg%2F11sqczgmvq!19sChIJy-LjnXTJ5zsRTNKQKrvaDSI?authuser=0&hl=en&rclk=1,Tripal M Enterprises,NA,,,"z=16,x=46025,y=29229"
J3xndBhi35zsRDmUDZR6W4-Q,"Shop No: 06, Swami Vivekananda Rd, opp. Post Office",Grocery store,NA,19.1314376,72.8474462,Temporarily closed,NA,https://www.google.com/maps/place/JD+genaral+store/data=!4m7!3m6!1s0x3be7b71806dd19df:0xe4e3961e6503650e!8m2!3d19.1314376!4d72.8474462!16s%2Fg%2F11svzjhq68!19sChIJ3xndBhi35zsRDmUDZR6W4-Q?authuser=0&hl=en&rclk=1,JD genaral store,4.0 stars 1 Reviews,4,1,"z=16,x=46029,y=29218"
J2Y2yl5LJ5zsRNCwZir_N8Wc,"Apna Fruitt, Post Office, near Tilak Nagar",Fruit and vegetable store,NA,19.0680108,72.8990119,Avaliable,In-store shopping,https://www.google.com/maps/place/Apna+Fruitt/data=!4m7!3m6!1s0x3be7c99297b28dd9:0x67f1cdbf8a192c34!8m2!3d19.0680108!4d72.8990119!16s%2Fg%2F11k0ybl84t!19sChIJ2Y2yl5LJ5zsRNCwZir_N8Wc?authuser=0&hl=en&rclk=1,Apna Fruitt,3.7 stars 3 Reviews,3.7,3,"z=16,x=46038,y=29230"
Jmd7nHqTI5zsR8HVpwpy3j-c,"5, KN Gaikwad Marg",Grocery store,NA,19.0584513,72.892083,Avaliable,In-store shopping,https://www.google.com/maps/place/Maya+Mart+%26+General+Store+24%C3%977/data=!4m7!3m6!1s0x3be7c8a41ee7de99:0xe78fb79cc26975f0!8m2!3d19.0584513!4d72.892083!16s%2Fg%2F11f04ffrb7!19sChIJmd7nHqTI5zsR8HVpwpy3j-c?authuser=0&hl=en&rclk=1,Maya Mart & General Store 24Ã—7,3.9 stars 63 Reviews,3.9,63,"z=16,x=46037,y=29232"
JURqCkIjI5zsR-o8YRRDg4hY,"Premier Road, opp. Holy Cross High School",Grocery store, 077770 20058,19.0820255,72.8860015,Avaliable,In-store shopping,https://www.google.com/maps/place/Home+Foods+Supermarket/data=!4m7!3m6!1s0x3be7c88890821a51:0x16e2e01045188ffa!8m2!3d19.0820255!4d72.8860015!16s%2Fg%2F11d_v53vz7!19sChIJURqCkIjI5zsR-o8YRRDg4hY?authuser=0&hl=en&rclk=1,Home Foods Supermarket,3.9 stars 483 Reviews,3.9,483,"z=16,x=46036,y=29228"
JJxph7xXI5zsR7OEImPPYq-g,"Shop No. 3 & 4, Ground Floor, Vic-Mon Building Co-Op Society, Marol Church Rd",Supermarket,NA,19.111613,72.8749484,Avaliable,In-store shopping,https://www.google.com/maps/place/Royal+SUPERMARKET/data=!4m7!3m6!1s0x3be7c815ef611a27:0xe8abd8f39808e1ec!8m2!3d19.111613!4d72.8749484!16s%2Fg%2F11bxjgmrsx!19sChIJJxph7xXI5zsR7OEImPPYq-g?authuser=0&hl=en&rclk=1,Royal SUPERMARKET,4.5 stars 637 Reviews,4.5,637,"z=16,x=46034,y=29222"
JzQ7OiozH5zsRspRRRhuQsPc,"Big Bazaar, 4th Floor, Tower C, 247 Park, Lal Bahadur Shastri Marg",Grocery store,NA,19.1284347,72.9252514,Temporarily closed,NA,https://www.google.com/maps/place/SHOP+GROCERY+INDIA/data=!4m7!3m6!1s0x3be7c78c8ace0ecd:0xf7b0901b465194b2!8m2!3d19.1284347!4d72.9252514!16s%2Fg%2F11fn29tfyj!19sChIJzQ7OiozH5zsRspRRRhuQsPc?authuser=0&hl=en&rclk=1,SHOP GROCERY INDIA,4.0 stars 2 Reviews,4,2,"z=16,x=46043,y=29219"
JxY2f4RDI5zsRpN4HAI3KMPo,"Shop No. 4, Ground Floor, Shankar Farad Chawl, Military Rd",Discount supermarket, 070213 10562,19.1172037,72.8828588,Avaliable,Kerbside pickup,https://www.google.com/maps/place/Poorti+Supermarket/data=!4m7!3m6!1s0x3be7c810e19f8dc5:0xfa30ca8d0007dea4!8m2!3d19.1172037!4d72.8828588!16s%2Fg%2F11c57dhh49!19sChIJxY2f4RDI5zsRpN4HAI3KMPo?authuser=0&hl=en&rclk=1,Poorti Supermarket,3.9 stars 887 Reviews,3.9,887,"z=16,x=46035,y=29221"
Jf6IR2jHG5zsRAAAAMEauWXE,"Shop7 , 2/10, 90feet Road, Gurunanak Nagar, Pantnagar, E Ghatkopar E",General store, 082862 82666,19.0804032,72.9110528,Avaliable,NA,https://www.google.com/maps/place/Grocery/data=!4m7!3m6!1s0x3be7c631da11a27f:0x7159ae4630000000!8m2!3d19.0804032!4d72.9110528!16s%2Fg%2F11rdx1lkgg!19sChIJf6IR2jHG5zsRAAAAMEauWXE?authuser=0&hl=en&rclk=1,Grocery,NA,,,"z=16,x=46041,y=29228"
JVUPVp1bI5zsRstc4E6CfP8Q,"Shop No 6 And 7, A B Nair Road, Opposite Juhu Post Office, Juhu, Juhu",Supermarket, 098337 43236,19.1112078,72.8263803,Avaliable,In-store shopping,https://www.google.com/maps/place/Nut+%26+Pulse+Super+Shoppe/data=!4m7!3m6!1s0x3be7c856a7d54355:0xc43f9fa01338d7b2!8m2!3d19.1112078!4d72.8263803!16s%2Fg%2F1tg38kpg!19sChIJVUPVp1bI5zsRstc4E6CfP8Q?authuser=0&hl=en&rclk=1,Nut & Pulse Super Shoppe,4.3 stars 140 Reviews,4.3,140,"z=16,x=46025,y=29222"
JRVR9ciHP5zsRtYWk1k9iBmE,"Shop No 6, Dawood Shaikh Chawl, C S Road, C S Road",Supermarket, 022 2828 0418,19.0759837,72.8776559,Avaliable,In-store shopping,https://www.google.com/maps/place/Shree+Balaji+Super+Market/data=!4m7!3m6!1s0x3be7cf21727d5445:0x6106624fd6a485b5!8m2!3d19.0759837!4d72.8776559!16s%2Fg%2F1tf801rq!19sChIJRVR9ciHP5zsRtYWk1k9iBmE?authuser=0&hl=en&rclk=1,Shree Balaji Super Market,5.0 stars 2 Reviews,5,2,"z=16,x=46034,y=29229"
JMcE2XD7J5zsRC78Ze60ODKw,"Shop No-1, Bindya Cooperative Society, Shop No-1, Medical, Hill Rd, near Bandra",Supermarket, 084519 70404,19.055309,72.8321319,Avaliable,In-store shopping,https://www.google.com/maps/place/Hill+Supermarket/data=!4m7!3m6!1s0x3be7c93e5c36c131:0xac0c0ead7b19bf0b!8m2!3d19.055309!4d72.8321319!16s%2Fg%2F11rqslnr0b!19sChIJMcE2XD7J5zsRC78Ze60ODKw?authuser=0&hl=en&rclk=1,Hill Supermarket,NA,,,"z=16,x=46026,y=29233"
J6_bOVWnJ5zsRlzgpofFy7YY,"Shop No 191, near Post Office",Grocery store, 099309 75099,19.0456598,72.8959871,Avaliable,Delivery,https://www.google.com/maps/place/Polygon+Enterprises/data=!4m7!3m6!1s0x3be7c96955cef6eb:0x86ed72f1a1293897!8m2!3d19.0456598!4d72.8959871!16s%2Fg%2F11rd8y8l4r!19sChIJ6_bOVWnJ5zsRlzgpofFy7YY?authuser=0&hl=en&rclk=1,Polygon Enterprises,NA,,,"z=16,x=46038,y=29235"
JHSX-2UHJ5zsRNo9rSg3VDqc,"Shop Nos. 6 & 7, Beach View Apartment, 77 Chimbai Road, next to Chimbai Police Chowki",Supermarket, 022 2640 3027,19.0578517,72.8234848,Avaliable,In-store shopping,https://www.google.com/maps/place/Society+Super+Market/data=!4m7!3m6!1s0x3be7c941d9fe251d:0xa70ed50d4a6b8f36!8m2!3d19.0578517!4d72.8234848!16s%2Fg%2F1tmxv1kg!19sChIJHSX-2UHJ5zsRNo9rSg3VDqc?authuser=0&hl=en&rclk=1,Society Super Market,4.2 stars 392 Reviews,4.2,392,"z=16,x=46025,y=29232"
JOXs1VWzJ5zsRi9XgjPDlUYg,"Sherly Rajan Rd, Opp. The Yoga House ,, next to ICICI Bank",Indian grocery store, 098191 24502,19.0658152,72.8249704,Avaliable,In-store shopping,https://www.google.com/maps/place/Jayant+stores/data=!4m7!3m6!1s0x3be7c96c55357b39:0x8851e5f08ce0d58b!8m2!3d19.0658152!4d72.8249704!16s%2Fg%2F11ckq_6dxs!19sChIJOXs1VWzJ5zsRi9XgjPDlUYg?authuser=0&hl=en&rclk=1,Jayant stores,3.9 stars 19 Reviews,3.9,19,"z=16,x=46025,y=29231"
JjbOay9HH5zsRAAAA0O2r5WY,"SHOP NO,1,DHUMAL CHAL,J-M-P-M MA, Sainath Nagar Rd",Grocery store, 086920 65818,19.0965033,72.9095509,Avaliable,NA,https://www.google.com/maps/place/Grocery+Shop/data=!4m7!3m6!1s0x3be7c7d1cb9ab38d:0x66e5abedd0000000!8m2!3d19.0965033!4d72.9095509!16s%2Fg%2F11p6snzv2x!19sChIJjbOay9HH5zsRAAAA0O2r5WY?authuser=0&hl=en&rclk=1,Grocery Shop,NA,,,"z=16,x=46040,y=29225"
J3fTthQPJ5zsRCra3faIFNOs,3RFW+JCW,Indian grocery store,NA,19.0741212,72.846077,Avaliable,Delivery,https://www.google.com/maps/place/general+store/data=!4m7!3m6!1s0x3be7c90385edf4dd:0xeb3405a27db7b60a!8m2!3d19.0741212!4d72.846077!16s%2Fg%2F11f_t5x365!19sChIJ3fTthQPJ5zsRCra3faIFNOs?authuser=0&hl=en&rclk=1,general store,4.5 stars 2 Reviews,4.5,2,"z=16,x=46029,y=29229"
JHUj5AOXH5zsRhBWtxnzif5U,"Hiranandani Gardens, Shop No 4, BG - India",Grocery store, 088800 77745,19.1196383,72.9080689,Avaliable,In-store shopping,https://www.google.com/maps/place/Nature%E2%80%99s+Basket/data=!4m7!3m6!1s0x3be7c7e500f9481d:0x957fe27cc6ad1584!8m2!3d19.1196383!4d72.9080689!16s%2Fg%2F11clvnwj66!19sChIJHUj5AOXH5zsRhBWtxnzif5U?authuser=0&hl=en&rclk=1,Natureâ€™s Basket,"4.2 stars 2,414 Reviews",4.2,,"z=16,x=46040,y=29220"
Jb_nM4EHJ5zsRQUq0CT2VWO4,7th Rd,Indian grocery store,NA,19.0755235,72.8422145,Avaliable,In-store shopping,https://www.google.com/maps/place/Jashraj+Supermarket/data=!4m7!3m6!1s0x3be7c941e0ccf96f:0xee58953d09b44a41!8m2!3d19.0755235!4d72.8422145!16s%2Fg%2F11stpkm2qs!19sChIJb_nM4EHJ5zsRQUq0CT2VWO4?authuser=0&hl=en&rclk=1,Jashraj Supermarket,2.7 stars 3 Reviews,2.7,3,"z=16,x=46028,y=29229"
JYbTXO_DH5zsR58ktBQpPLVQ,"Shop No. 3, Royal Arcade, Building No. 21, Mada Complex Opp. Jal Vayu",Supermarket,NA,19.1174073,72.9038994,Avaliable,In-store shopping,https://www.google.com/maps/place/Bhakti+Supermarket/data=!4m7!3m6!1s0x3be7c7f03bd7b461:0x542d4f0a052dc9e7!8m2!3d19.1174073!4d72.9038994!16s%2Fg%2F1tg_dh_w!19sChIJYbTXO_DH5zsR58ktBQpPLVQ?authuser=0&hl=en&rclk=1,Bhakti Supermarket,4.2 stars 421 Reviews,4.2,421,"z=16,x=46039,y=29221"
JD-IIXe_H5zsRdrMoUoLo_rc,"Haiko Mall, Central Ave",Supermarket, 073044 40756,19.1182002,72.9112939,Avaliable,In-store shopping,"https://www.google.com/maps/place/Haiko+Supermarket,+Powai/data=!4m7!3m6!1s0x3be7c7ef5d08e20f:0xb7fee8825228b376!8m2!3d19.1182002!4d72.9112939!16s%2Fg%2F1tf2w80r!19sChIJD-IIXe_H5zsRdrMoUoLo_rc?authuser=0&hl=en&rclk=1","Haiko Supermarket, Powai","4.3 stars 9,462 Reviews",4.3,,"z=16,x=46041,y=29221"
Jre2rLmTI5zsRTQ8rW4sLojc,3VVJ+FHH,Indian grocery store, 098920 06097,19.0936849,72.8814732,Avaliable,In-store shopping,https://www.google.com/maps/place/Gupta+Kirana+Store/data=!4m7!3m6!1s0x3be7c8642eabedad:0x37a20b8b5b2b0f4d!8m2!3d19.0936849!4d72.8814732!16s%2Fg%2F11f2_pbbbh!19sChIJre2rLmTI5zsRTQ8rW4sLojc?authuser=0&hl=en&rclk=1,Gupta Kirana Store,4.8 stars 6 Reviews,4.8,6,"z=16,x=46035,y=29225"
Jq2bL-mTJ5zsR9BvD9mrtn4g,"Plot No, 106, Linking Rd",Grocery store,NA,19.0763778,72.8345166,Avaliable,In-store shopping,https://www.google.com/maps/place/Food+Square/data=!4m7!3m6!1s0x3be7c964facb66ab:0x889fed6af6c31bf4!8m2!3d19.0763778!4d72.8345166!16s%2Fg%2F11gzs5zsgz!19sChIJq2bL-mTJ5zsR9BvD9mrtn4g?authuser=0&hl=en&rclk=1,Food Square,"4.4 stars 3,533 Reviews",4.4,,"z=16,x=46027,y=29229"
Ju3SGlpfH5zsR8l_pOMSeINk,"No. 8-B, opposite Old Post Office, Group",General store, 095946 86825,19.1151972,72.9328884,Avaliable,NA,https://www.google.com/maps/place/Surya+Kirana+%26+General+Stores/data=!4m7!3m6!1s0x3be7c797968674bb:0xd9209ec438e95ff2!8m2!3d19.1151972!4d72.9328884!16s%2Fg%2F1pv0vf65z!19sChIJu3SGlpfH5zsR8l_pOMSeINk?authuser=0&hl=en&rclk=1,Surya Kirana & General Stores,4.0 stars 2 Reviews,4,2,"z=16,x=46045,y=29221"
JXZ8e7zHJ5zsRVxZ_-5PaMK8,"Ground Floor, Jio World Drive, MAKER MAXITY, Bandra Kurla Complex Rd, opposite MMRDA",Hypermarket,NA,19.05339,72.8504402,Avaliable,"""Fresh Pik Gourmet Grocery Store is a haven for international food lovers, offering a well-curated array ofÂ ...""",https://www.google.com/maps/place/Freshpik/data=!4m7!3m6!1s0x3be7c931ef1e9f5d:0xaf30da93fb7f1657!8m2!3d19.05339!4d72.8504402!16s%2Fg%2F11rcy8wqhz!19sChIJXZ8e7zHJ5zsRVxZ_-5PaMK8?authuser=0&hl=en&rclk=1,Freshpik,4.4 stars 287 Reviews,4.4,287,"z=16,x=46030,y=29233"
JJ1RvOd7H5zsRru4b5OB_RQc,"005,shanti sadan society,, 4-B",Grocery store, 079771 50224,19.1069872,72.9025969,Avaliable,In-store shopping,https://www.google.com/maps/place/Tip+Top+Super+Market/data=!4m7!3m6!1s0x3be7c7de396f5427:0x7457fe0e41beeae!8m2!3d19.1069872!4d72.9025969!16s%2Fg%2F11bxfj0f6b!19sChIJJ1RvOd7H5zsRru4b5OB_RQc?authuser=0&hl=en&rclk=1,Tip Top Super Market,4.0 stars 223 Reviews,4,223,"z=16,x=46039,y=29223"
JlZbh2LDJ5zsR72gVWuOcOEw,"Shop No.4, Acropolis Building, Military Rd, next to Cuddle N Care",Grocery store, 098336 43194,19.1176054,72.8836897,Avaliable,In-store shopping,https://www.google.com/maps/place/Tanvi+Super+Market/data=!4m7!3m6!1s0x3be7c9b0d8e19695:0x4c389ce35a1568ef!8m2!3d19.1176054!4d72.8836897!16s%2Fg%2F1tf2w80v!19sChIJlZbh2LDJ5zsR72gVWuOcOEw?authuser=0&hl=en&rclk=1,Tanvi Super Market,4.0 stars 913 Reviews,4,913,"z=16,x=46036,y=29221"
JFWN1UenJ5zsRWc3y6eCGC9w,"Shop No 01, Vaikunthlal Mehta Rd",Fruit and vegetable store,NA,19.1031248,72.8335047,Temporarily closed,NA,https://www.google.com/maps/place/Grocery/data=!4m7!3m6!1s0x3be7c9e951756315:0xdc0b86e0e9f2cd59!8m2!3d19.1031248!4d72.8335047!16s%2Fg%2F11sddlhx5f!19sChIJFWN1UenJ5zsRWc3y6eCGC9w?authuser=0&hl=en&rclk=1,Grocery,NA,,,"z=16,x=46026,y=29224"
JVVF1FjLI5zsRq0gz33ru8Cs,"Bharat Petroleum corporation, Andheri - Kurla Rd, below Highway metro station",Supermarket, 098928 80880,19.1162748,72.8560485,Avaliable,In-store shopping,https://www.google.com/maps/place/In+And+Out+Supermarket/data=!4m7!3m6!1s0x3be7c83216755155:0x2bf0ee7adf3348ab!8m2!3d19.1162748!4d72.8560485!16s%2Fg%2F11c55br1q4!19sChIJVVF1FjLI5zsRq0gz33ru8Cs?authuser=0&hl=en&rclk=1,In And Out Supermarket,3.8 stars 14 Reviews,3.8,14,"z=16,x=46031,y=29221"
Jc8zJg4nJ5zsRUuQwFWD36a0,"Road, near Shiv Shena Office Pump House",Grocery store, 079777 09603,19.1251214,72.8589314,Avaliable,In-store shopping,https://www.google.com/maps/place/Top+10+Super+Market/data=!4m7!3m6!1s0x3be7c98983c9cc73:0xade9f7601530e452!8m2!3d19.1251214!4d72.8589314!16s%2Fg%2F11gn1_xh4m!19sChIJc8zJg4nJ5zsRUuQwFWD36a0?authuser=0&hl=en&rclk=1,Top 10 Super Market,3.0 stars 1 Reviews,3,1,"z=16,x=46031,y=29219"
J4_VJNw7J5zsRI0YgNHilvWE,"Shop No 2, 316, Dunhill Apartment, Dr Ambedkar Rd",Supermarket, 073040 44882,19.06946,72.8295842,Avaliable,In-store shopping,https://www.google.com/maps/place/Manek+Stores+Super+Market/data=!4m7!3m6!1s0x3be7c90e3749f5e3:0x61bda57834204623!8m2!3d19.06946!4d72.8295842!16s%2Fg%2F1tcwpm1m!19sChIJ4_VJNw7J5zsRI0YgNHilvWE?authuser=0&hl=en&rclk=1,Manek Stores Super Market,4.2 stars 100 Reviews,4.2,100,"z=16,x=46026,y=29230"
Ju3NDOBbJ5zsRvxgufNWyRMs,"1, St Andrews Rd",Grocery store, 075450 05952,19.0614729,72.8272733,Avaliable,In-store shopping,https://www.google.com/maps/place/New+Indian+General+Store/data=!4m7!3m6!1s0x3be7c916384373bb:0xcb44b2d57c2e18bf!8m2!3d19.0614729!4d72.8272733!16s%2Fg%2F11sqczq1y3!19sChIJu3NDOBbJ5zsRvxgufNWyRMs?authuser=0&hl=en&rclk=1,New Indian General Store,5.0 stars 6 Reviews,5,6,"z=16,x=46025,y=29232"
JG6JErD_J5zsRgYi9uPlnYTg,"Plot No.29, 56, Hill Rd, next to Bank of India",Grocery store, 088800 77745,19.0556937,72.8318962,Avaliable,In-store shopping,https://www.google.com/maps/place/Nature%27s+Basket/data=!4m7!3m6!1s0x3be7c93fac44a21b:0x386167f9b8bd8881!8m2!3d19.0556937!4d72.8318962!16s%2Fg%2F1262_8gp5!19sChIJG6JErD_J5zsRgYi9uPlnYTg?authuser=0&hl=en&rclk=1,Nature's Basket,"4.2 stars 2,253 Reviews",4.2,,"z=16,x=46026,y=29233"
J6XC-dI_I5zsRKvZTqyfDr_4,"Shope no 8/9, 19/A, phase 2, kohinoor city,, Near Kohinoor Hospital Kurla West Vidyavihar, West",Supermarket, 086551 20888,19.0775003,72.8856085,Avaliable,In-store shopping,https://www.google.com/maps/place/Liberty+Super+market/data=!4m7!3m6!1s0x3be7c88f74be70e9:0xfeafc327ab53f62a!8m2!3d19.0775003!4d72.8856085!16s%2Fg%2F11g6h_xfw7!19sChIJ6XC-dI_I5zsRKvZTqyfDr_4?authuser=0&hl=en&rclk=1,Liberty Super market,4.0 stars 345 Reviews,4,345,"z=16,x=46036,y=29229"
JP7pLqRTJ5zsR4BypGzFnAd8,"Shop No. 9, Silver Croft Building, Pali Mala Rd",Grocery store, 022 2646 1367,19.0628433,72.8283496,Avaliable,In-store shopping,https://www.google.com/maps/place/Choice+super+market/data=!4m7!3m6!1s0x3be7c914a94bba3f:0xdf0167311ba91ce0!8m2!3d19.0628433!4d72.8283496!16s%2Fg%2F11c55dqz2c!19sChIJP7pLqRTJ5zsR4BypGzFnAd8?authuser=0&hl=en&rclk=1,Choice super market,4.6 stars 26 Reviews,4.6,26,"z=16,x=46025,y=29231"
JR5XT9uzJ5zsRmwRyBqWNnTA,"Shop No. 251, Bhalekar wadi, New Mill Rd, Near madina hotel",Grocery store, 078678 67372,19.0766816,72.8801109,Avaliable,In-store shopping,https://www.google.com/maps/place/M.H.Supermart/data=!4m7!3m6!1s0x3be7c9ecf6d39547:0x309d8da50672049b!8m2!3d19.0766816!4d72.8801109!16s%2Fg%2F11h0_r_07h!19sChIJR5XT9uzJ5zsRmwRyBqWNnTA?authuser=0&hl=en&rclk=1,M.H.Supermart,4.6 stars 14 Reviews,4.6,14,"z=16,x=46035,y=29229"
JbwT2QnrJ5zsR3Jdw79Hl4AA,3VGG+RGH,Grocery store,NA,19.0770747,72.8763703,Avaliable,In-store shopping,https://www.google.com/maps/place/Kriya+supermarket/data=!4m7!3m6!1s0x3be7c97a42f6046f:0xe0e5d1ef7097dc!8m2!3d19.0770747!4d72.8763703!16s%2Fg%2F11p5hkx85s!19sChIJbwT2QnrJ5zsR3Jdw79Hl4AA?authuser=0&hl=en&rclk=1,Kriya supermarket,5.0 stars 1 Reviews,5,1,"z=16,x=46034,y=29229"
JQWZoM5PI5zsRfdzNR_jjpio,"Shop No 23, 3V8F+Vwr, Lal Bahadur Shastri Marg",Grocery store, 088983 21292,19.0694536,72.8752799,Avaliable,In-store shopping,https://www.google.com/maps/place/Ayesha+Grocery+Mart/data=!4m7!3m6!1s0x3be7c89333686641:0x2aa6e3f847cddc7d!8m2!3d19.0694536!4d72.8752799!16s%2Fg%2F11kjgbjnvr!19sChIJQWZoM5PI5zsRfdzNR_jjpio?authuser=0&hl=en&rclk=1,Ayesha Grocery Mart,3.0 stars 1 Reviews,3,1,"z=16,x=46034,y=29230"
J7zJdtJDJ5zsRACwQwta2tFc,"Shop no. 4 Solanki Apartment, Lal Bahadur Shastri Marg, next to FAUZIYA HOSPITAL",Supermarket,NA,19.0794734,72.880068,Avaliable,In-store shopping,https://www.google.com/maps/place/Primium+enterprises/data=!4m7!3m6!1s0x3be7c990b45d32ef:0x57b4b6d6c2102c00!8m2!3d19.0794734!4d72.880068!16s%2Fg%2F11mtd6qzkj!19sChIJ7zJdtJDJ5zsRACwQwta2tFc?authuser=0&hl=en&rclk=1,Primium enterprises,5.0 stars 1 Reviews,5,1,"z=16,x=46035,y=29228"
JdwPbhKvJ5zsRXGeUHeRAIic,"Shop No. 1 & 2, C Wing, Kalpataru Sparkle Complex Nanasaheb Dharmadhikari Road, MIG Colony",Grocery store, 077385 36302,19.056164,72.8480149,Avaliable,In-store shopping,https://www.google.com/maps/place/Nature%27s+Basket/data=!4m7!3m6!1s0x3be7c9ab84db0377:0x272240e41d94675c!8m2!3d19.056164!4d72.8480149!16s%2Fg%2F11gxt4nr8p!19sChIJdwPbhKvJ5zsRXGeUHeRAIic?authuser=0&hl=en&rclk=1,Nature's Basket,4.2 stars 181 Reviews,4.2,181,"z=16,x=46029,y=29233"
JS9BVd5LI5zsRIpWvHYRyIfs,"349, A, Raghoji Pitambar Trust, Sambhaji Chouk, New Mill Road, Kurla Wes",Grocery store, 098215 02171,19.073299,72.8788495,Avaliable,In-store shopping,https://www.google.com/maps/place/Shree+ganesh+super+market/data=!4m7!3m6!1s0x3be7c8927755d04b:0xfb2172841daf9522!8m2!3d19.073299!4d72.8788495!16s%2Fg%2F11bzzwq0x6!19sChIJS9BVd5LI5zsRIpWvHYRyIfs?authuser=0&hl=en&rclk=1,Shree ganesh super market,4.8 stars 6 Reviews,4.8,6,"z=16,x=46035,y=29229"
JiXn8YJLI5zsRICrqYAVSwkA,"Shop No 168, Nenshi Chawl",Grocery store, 080822 11334,19.0723869,72.8783009,Avaliable,In-store shopping,https://www.google.com/maps/place/Santosh+Groceries/data=!4m7!3m6!1s0x3be7c89260fc7989:0x40c2520560ea2a20!8m2!3d19.0723869!4d72.8783009!16s%2Fg%2F11s7qcfmz1!19sChIJiXn8YJLI5zsRICrqYAVSwkA?authuser=0&hl=en&rclk=1,Santosh Groceries,NA,,,"z=16,x=46035,y=29230"
JtWkX9PLI5zsRVcWhaSWLbOw,"24, CST Road",Grocery store,NA,19.0748733,72.8725913,Avaliable,In-store shopping,https://www.google.com/maps/place/Janta+dairy+General+Store/data=!4m7!3m6!1s0x3be7c8f2f41769b5:0xec6c8b2569a1c555!8m2!3d19.0748733!4d72.8725913!16s%2Fg%2F11c51wwqm9!19sChIJtWkX9PLI5zsRVcWhaSWLbOw?authuser=0&hl=en&rclk=1,Janta dairy General Store,4.8 stars 12 Reviews,4.8,12,"z=16,x=46034,y=29229"
J164CZ43I5zsRAAAAsOqjv3A,"Shop No 3 Gafoor Khan Estate, opp. Musle Mania Gym",Grocery store, 090822 97160,19.0741036,72.876848,Avaliable,In-store shopping,https://www.google.com/maps/place/AS+MINI+MART/data=!4m7!3m6!1s0x3be7c88d6702aed7:0x70bfa3eab0000000!8m2!3d19.0741036!4d72.876848!16s%2Fg%2F11p6snzq48!19sChIJ164CZ43I5zsRAAAAsOqjv3A?authuser=0&hl=en&rclk=1,AS MINI MART,NA,,,"z=16,x=46034,y=29229"
J7YlAPhu35zsRXWc-9YZa1Dw,Bengaluru - Mumbai Hwy,Grocery store, 097735 07110,19.0751164,72.8787266,Avaliable,In-store shopping,https://www.google.com/maps/place/Tejas+Super+Mart/data=!4m7!3m6!1s0x3be7b71b3e4089ed:0x3cd45a86f53e675d!8m2!3d19.0751164!4d72.8787266!16s%2Fg%2F11rj04gkdw!19sChIJ7YlAPhu35zsRXWc-9YZa1Dw?authuser=0&hl=en&rclk=1,Tejas Super Mart,2.8 stars 4 Reviews,2.8,4,"z=16,x=46035,y=29229"
JE81GBI3I5zsRuziMrkvC84s,undefined,SupermarketOpen â‹… Closes 9â€¯pm, 022 2899 9123,19.0759837,72.8776559,Avaliable,In-store shopping,https://www.google.com/maps/place/U+%26+I+Express+Mart/data=!4m7!3m6!1s0x3be7c88d0446cd13:0x8bf3c24bae8c38bb!8m2!3d19.0759837!4d72.8776559!16s%2Fg%2F11gbfdhlpl!19sChIJE81GBI3I5zsRuziMrkvC84s?authuser=0&hl=en&rclk=1,U & I Express Mart,3.0 stars 4 Reviews,3,4,"z=16,x=46034,y=29229"
JJ0scXb3J5zsRnL8-f7mAQtI,03 Kurla CST Road Kapadiya Nagar,Grocery store, 086550 06091,19.0748627,72.8726461,Avaliable,In-store shopping,https://www.google.com/maps/place/AARADHANA+SUPER+MARKET/data=!4m7!3m6!1s0x3be7c9bd5d1c4b27:0xd24280b97f3ebf9c!8m2!3d19.0748627!4d72.8726461!16s%2Fg%2F11sgw0myhb!19sChIJJ0scXb3J5zsRnL8-f7mAQtI?authuser=0&hl=en&rclk=1,AARADHANA SUPER MARKET,1.0 stars 1 Reviews,1,1,"z=16,x=46034,y=29229"
JecQtzp3J5zsR1WIucShUwNE,"Shop 1 & 2, Anand Vihar, 20th B Rd",Supermarket, 084518 80121,19.0741027,72.8280863,Avaliable,In-store shopping,https://www.google.com/maps/place/Bombay+Gourmet+Market+%28Khar%29/data=!4m7!3m6!1s0x3be7c99dce2dc479:0xd1c05428712e62d5!8m2!3d19.0741027!4d72.8280863!16s%2Fg%2F11sjzy6svl!19sChIJecQtzp3J5zsR1WIucShUwNE?authuser=0&hl=en&rclk=1,Bombay Gourmet Market (Khar),4.1 stars 9 Reviews,4.1,9,"z=16,x=46025,y=29229"
JR5DVTQTJ5zsRiKyswjaCSCU,"Shop No. 1, Spring Palm, CHSL, Military Rd",Indian grocery store,NA,19.120715,72.8850593,Avaliable,In-store shopping,https://www.google.com/maps/place/GIA+GENERAL+STORE/data=!4m7!3m6!1s0x3be7c9044dd59047:0x25488236c2acac88!8m2!3d19.120715!4d72.8850593!16s%2Fg%2F11sfrsc054!19sChIJR5DVTQTJ5zsRiKyswjaCSCU?authuser=0&hl=en&rclk=1,GIA GENERAL STORE,5.0 stars 6 Reviews,5,6,"z=16,x=46036,y=29220"
JdfFy9BXJ5zsRFMnDPjeNy18,"Shop no. 13, Sai Baba Building, New Hall Road",Supermarket, 097733 03145,19.0782656,72.8829787,Avaliable,In-store shopping,https://www.google.com/maps/place/Kayf+Mart/data=!4m7!3m6!1s0x3be7c915f472f175:0x5fcb8d373ec3c914!8m2!3d19.0782656!4d72.8829787!16s%2Fg%2F11srl6g99d!19sChIJdfFy9BXJ5zsRFMnDPjeNy18?authuser=0&hl=en&rclk=1,Kayf Mart,4.3 stars 6 Reviews,4.3,6,"z=16,x=46035,y=29228"
JfbqA29_J5zsRkJ_eq5NChk8,01 Kurla CST Road Kapadiya Nagar,Grocery store, 087952 87853,19.0748679,72.8726436,Avaliable,In-store shopping,https://www.google.com/maps/place/Suhail+Store/data=!4m7!3m6!1s0x3be7c9dfdb80ba7d:0x4f864293abde9f90!8m2!3d19.0748679!4d72.8726436!16s%2Fg%2F11pf6ctx2y!19sChIJfbqA29_J5zsRkJ_eq5NChk8?authuser=0&hl=en&rclk=1,Suhail Store,NA,,,"z=16,x=46034,y=29229"
Jjx4DBJPI5zsREHbxb6G0DE4,"3, Sarveshwar Mandir Rd",Supermarket, 099309 19991,19.0703139,72.8778228,Avaliable,In-store shopping,https://www.google.com/maps/place/Super+General+Store/data=!4m7!3m6!1s0x3be7c89304031e8f:0x4e0cb4a16ff17610!8m2!3d19.0703139!4d72.8778228!16s%2Fg%2F11g815xn5h!19sChIJjx4DBJPI5zsREHbxb6G0DE4?authuser=0&hl=en&rclk=1,Super General Store,3.5 stars 2 Reviews,3.5,2,"z=16,x=46035,y=29230"
J60IXTpLI5zsRXoyBFtJ0wn0,"Shop No 2, Old Mehtab Building, New Mill Rd",Grocery store, 086898 68154,19.0712387,72.8791303,Avaliable,NA,https://www.google.com/maps/place/Mh+Backery+And+General+Store/data=!4m7!3m6!1s0x3be7c8924e1742eb:0x7dc274d216818c5e!8m2!3d19.0712387!4d72.8791303!16s%2Fg%2F11rqslnrr6!19sChIJ60IXTpLI5zsRXoyBFtJ0wn0?authuser=0&hl=en&rclk=1,Mh Backery And General Store,NA,,,"z=16,x=46035,y=29230"
JLbaldI3I5zsRAAAAsGiEOlw,1,Grocery store, 086173 92396,19.0748654,72.877693,Avaliable,Delivery,https://www.google.com/maps/place/Sarkar+Store/data=!4m7!3m6!1s0x3be7c88d74a5b62d:0x5c3a8468b0000000!8m2!3d19.0748654!4d72.877693!16s%2Fg%2F11s0fjq9m4!19sChIJLbaldI3I5zsRAAAAsGiEOlw?authuser=0&hl=en&rclk=1,Sarkar Store,NA,,,"z=16,x=46034,y=29229"
JA26Gw6vJ5zsRANQqSAgkHkA,"Shop No.1, Bhalekar Wadi, New Mill Rd",Grocery store, 098920 55718,19.0769862,72.880158,Avaliable,NA,https://www.google.com/maps/place/Sadguru+Kirana+Store/data=!4m7!3m6!1s0x3be7c9abc3866e03:0x401e2408482ad400!8m2!3d19.0769862!4d72.880158!16s%2Fg%2F11v6wjf266!19sChIJA26Gw6vJ5zsRANQqSAgkHkA?authuser=0&hl=en&rclk=1,Sadguru Kirana Store,NA,,,"z=16,x=46035,y=29229"
